{
  "type" : "FeatureCollection",
  "features" : [{"type":"Feature","id":107,"geometry":{"type":"MultiLineString","coordinates":[[[-106.14292538440144,39.509928339573634],[-106.1430436538968,39.510269566290134],[-106.14328013988691,39.510659197140008],[-106.143457401747,39.511139508822005],[-106.14366445264021,39.511529417556623],[-106.14369400272147,39.511691321501651],[-106.14384266761277,39.512023235468426],[-106.14395998579226,39.512283389869111],[-106.14407848525633,39.512903930634323],[-106.14421870867893,39.513208911809677],[-106.14409186656081,39.513475958782891],[-106.14404829018467,39.51363407080386],[-106.14400559775082,39.513823709532467],[-106.1440545676119,39.514016949380689],[-106.14415265645439,39.514389910830516],[-106.14423600573973,39.514817086199095],[-106.14476703943004,39.515920131082673],[-106.14491019046213,39.516247604891461],[-106.14480495552155,39.516370274115985],[-106.14480931774057,39.516636040753696],[-106.14498798187081,39.51680097019328],[-106.14512165388001,39.517015906285963],[-106.14511579237279,39.517124090636024],[-106.14510978533849,39.517223261092482],[-106.14520232708411,39.517456613423981],[-106.14520243937352,39.518416215738071],[-106.14514367787584,39.51857898024911],[-106.14502534100683,39.518900012807194],[-106.14490728620883,39.51917148677645],[-106.14487799304572,39.519469122001759],[-106.14473038457318,39.520155364084907],[-106.1442579749383,39.521232245710863],[-106.14381470126136,39.521714148054578],[-106.1430467512879,39.52226232264789],[-106.14251497469084,39.522447753860632],[-106.14130319049171,39.522491192066276],[-106.14071252842946,39.522699724455777],[-106.14026949639931,39.523109532362547],[-106.13979672923496,39.523569196048832],[-106.13885136109458,39.52427675618992],[-106.13769901572284,39.525626077952538],[-106.13734436983182,39.526084566449754],[-106.13696037418384,39.526750588231181],[-106.13672434543619,39.527550304676957],[-106.13675402756981,39.528122174102791],[-106.1368130423924,39.528396410562117],[-106.13699029526931,39.52876410100977],[-106.1371380052515,39.528992426574213],[-106.13805427875647,39.52983943916766],[-106.13837950033034,39.53018315660691],[-106.13876410593441,39.530801104849154],[-106.13876376637123,39.530913736633416],[-106.1389114772517,39.53107447574822],[-106.13917796876895,39.531828730600537],[-106.13941414843356,39.532263415109838],[-106.13991691393851,39.532767572373643],[-106.14112848613526,39.53358914264826],[-106.14157200505228,39.534048820102846],[-106.14180854314468,39.534393399354215],[-106.14186793076811,39.534622575198497],[-106.14189771171641,39.536018882732783],[-106.1420160243309,39.536315065001929],[-106.14248906278647,39.536999707226428],[-106.142666368664,39.537389908636285],[-106.14266677380421,39.538146770396693],[-106.14257809661093,39.538282801389315],[-106.14225316609118,39.539403277054149],[-106.14219402191119,39.539611096368446],[-106.14207587817998,39.539702354499845],[-106.14092346633289,39.540569655455442],[-106.13932744394064,39.541576443552806],[-106.13906176719537,39.541853861291372],[-106.13829318211302,39.542356956900512],[-106.1380864429352,39.542791476423254],[-106.13796842766307,39.543270170737486],[-106.13811641432633,39.544025595399781],[-106.1382346712453,39.544073993853345],[-106.13847113477753,39.545035780302079],[-106.13838271899402,39.545879114232257],[-106.13817604090164,39.546340658170145],[-106.13731893762781,39.547506877727137],[-106.13658021703708,39.548216898835783],[-106.13566393904053,39.548969210801801],[-106.13536842026151,39.549337016708101],[-106.13498428717129,39.550070598018962],[-106.13412715784632,39.552336046888556],[-106.13397955476368,39.552652849972858],[-106.13394982861259,39.552815325052528],[-106.13371345850516,39.552930258755588],[-106.13350655942723,39.553202586671446],[-106.13267898467511,39.553823351908157],[-106.13173313054615,39.554440760007239],[-106.13093491094088,39.555056724054722],[-106.13031430533526,39.555815121885722],[-106.13004812463512,39.556200648414773],[-106.12966398525668,39.557118927138831],[-106.12942740584178,39.557806011190685],[-106.12925039281504,39.561740722635236],[-106.1291320011488,39.562426656996166],[-106.12868873376004,39.562976084239011],[-106.12724005932894,39.56384611647529],[-106.12673748516512,39.564553792391756],[-106.1262643496915,39.564968350394381],[-106.12558410044259,39.565285790374077],[-106.1249930305452,39.565584354607346],[-106.12401719424534,39.566364174077641],[-106.12304155826978,39.566706987666457],[-106.12138556524746,39.567047343287705],[-106.11981876325478,39.567166063499215],[-106.11905007576446,39.567394220490392],[-106.11748263866288,39.568630193249469],[-106.11683213981955,39.568969828259888],[-106.1160631558852,39.569567389746936],[-106.11523518497603,39.570025851123106],[-106.11485101325826,39.570299845147247],[-106.11446650018068,39.570916230625897],[-106.11352029481044,39.571718210046896],[-106.11304661136448,39.572448073083358],[-106.112425635653,39.572976618137879],[-106.11085832970542,39.574122394135337],[-106.11068075972324,39.574394399958528],[-106.11059199898662,39.574715114843926],[-106.11059200796979,39.575012458602174],[-106.11059200168158,39.575080033277949],[-106.11011869013815,39.575562101859653],[-106.10991165900786,39.576041617660394],[-106.10967520535711,39.57636374019043],[-106.10932009324047,39.57654734295803],[-106.10917232307118,39.576544241014261],[-106.10858075550712,39.576685044887704],[-106.10840356820722,39.576799362962589],[-106.10742770136463,39.576867225317457],[-106.10671782388101,39.5770046441151],[-106.1059194776133,39.576841045166979],[-106.10532786513348,39.576887214064463],[-106.10402672191977,39.57732306965196],[-106.10361264618449,39.577322500507066],[-106.10228202295811,39.577046797715823],[-106.10157216164416,39.577116599219828],[-106.10098087255786,39.577230319049207],[-106.09970924439112,39.57725587451592],[-106.09870348610744,39.577459106922142],[-106.09799396076343,39.577758653160579],[-106.09731341147723,39.578350743868249],[-106.09686985842423,39.578742371659573],[-106.09610057445258,39.57903795890099],[-106.09231518164313,39.579424997939356],[-106.09201939965773,39.579427777802408],[-106.09055327994379,39.579491099107038],[-106.09030681995905,39.579367266077412],[-106.08851394524702,39.579384071279534],[-106.08827243048793,39.579575550732876],[-106.08786593922862,39.579642429285386],[-106.08346424733703,39.579620472239924],[-106.08338373493136,39.579684295334381],[-106.08264930738939,39.579628066125686],[-106.08256879228875,39.579691889213159],[-106.07878447116944,39.582691463720856],[-106.07862049718906,39.582629912877614],[-106.07676846751725,39.584097748132443],[-106.07652397753797,39.584100012720036],[-106.07563818926047,39.584802004303434],[-106.07563368061606,39.589784736830431],[-106.07548432222535,39.590669126489281],[-106.07516705613162,39.591239714948813],[-106.06928863721922,39.595961274608236],[-106.06896355847744,39.596027337851794],[-106.06872191795422,39.596218778239063],[-106.06725659145266,39.596358389625557],[-106.06709549567444,39.596486014614847],[-106.06668791745363,39.596489756642228],[-106.06644628321861,39.59668118190752],[-106.066120219025,39.596684173582844],[-106.0657155387693,39.596877103142909],[-106.06449473997625,39.597014437269763],[-106.06400949970417,39.597271170729925],[-106.06191415594778,39.59886713250178],[-106.0618538134152,39.600255270305261],[-106.06161213875599,39.600446696238436],[-106.06162368749727,39.601203452079552],[-106.06073754258863,39.601905333356676],[-106.06075196683716,39.602851279783437],[-106.05865734083466,39.604510257763252],[-106.05861996642727,39.607411904807442]],[[-106.03814865916776,39.546213713891532],[-106.03826647142066,39.546627139506747],[-106.03870830060663,39.5477945415115],[-106.03882603021449,39.548275543267131],[-106.03935660037412,39.549514236068596],[-106.03947462283278,39.54964833232777],[-106.04015389651128,39.550223423452096],[-106.04062601778696,39.550931022257636],[-106.04145244089887,39.552054417535565],[-106.04213165439026,39.552647526366442],[-106.04245648429867,39.553014037635606],[-106.04251520447386,39.55324327182089],[-106.04301688571225,39.553955098770402],[-106.04307564631162,39.554089723228714],[-106.04337106088609,39.554433974419368],[-106.044966435593,39.555284638993328],[-106.04638461132193,39.556177426872964],[-106.04670912232844,39.556543929881776],[-106.04688608415118,39.557137019029383],[-106.04729937296227,39.557480188511178],[-106.04765428205965,39.557666209933217],[-106.04783127622177,39.557849331696147],[-106.047800855673,39.558511862850814],[-106.04768247298991,39.558670611997051],[-106.04774147254115,39.559062026838703],[-106.0479776198664,39.559429322834241],[-106.04874526980257,39.560161256478487],[-106.04898142521266,39.560456461702266],[-106.04895191465724,39.560573860024085],[-106.04907005299859,39.560640379464687],[-106.04906997484515,39.560707954989986],[-106.04912886929348,39.56080203247199],[-106.04915854244396,39.560936916508304],[-106.04971950799954,39.561373362699797],[-106.04992619327842,39.561763441603958],[-106.04998461611125,39.562357596262459],[-106.04985291320914,39.562863370133996],[-106.04983610213692,39.562931097235854],[-106.04962882486825,39.563225803127963],[-106.04942166168563,39.563479964381749],[-106.04930306969509,39.563891009394069],[-106.04947988958403,39.564326412757588],[-106.0494494070515,39.565128607596669],[-106.04909424822246,39.565604861833172],[-106.04897574875837,39.565997876696301],[-106.04897510556464,39.566317748871725],[-106.04909319449862,39.566429312661008],[-106.04932929061991,39.566886711725175],[-106.04932895914158,39.567323713936595],[-106.04885515891463,39.56789563652459],[-106.04876616102281,39.568121707435871],[-106.04873571801613,39.568878848218127],[-106.04885388959514,39.568994913119973],[-106.04885368388095,39.569247206408662],[-106.0489717593402,39.569453378974011],[-106.04900100129933,39.569655842073288],[-106.04941587923015,39.570219753728871],[-106.04951446933258,39.571354166484205],[-106.05050751645497,39.572354352773587],[-106.05133191206932,39.57297761939715],[-106.05133762445621,39.573356004356349],[-106.0516673897088,39.573605303644548],[-106.05167501011735,39.57410981766666],[-106.0519318510335,39.574927432251961],[-106.05185131347503,39.574991232663713],[-106.05193375636021,39.575053560254105],[-106.05215295966258,39.578772836206603],[-106.05186319728791,39.581172207490695],[-106.05260524793343,39.581733135614385],[-106.05272012449194,39.583939623519463],[-106.05288789565103,39.584253467260901],[-106.05297430729316,39.595353377534757],[-106.05338951670232,39.595854185692879],[-106.05347865922292,39.596357959077004],[-106.05406551153003,39.597424862593222],[-106.05400692161058,39.598939118679361],[-106.05418715869085,39.600072780361316],[-106.05477405411713,39.6011396792602],[-106.05510586483362,39.601515103106451],[-106.05774522024126,39.603509412218877],[-106.05779317141281,39.606662573803831],[-106.05787757621857,39.606851013629381],[-106.05861996642727,39.607411904807442]],[[-106.05861996642727,39.607411904807442],[-106.05882631124464,39.615609368524602],[-106.05925224384336,39.616803852255636],[-106.05975109359198,39.617430018482459],[-106.0630145966624,39.617526352363129],[-106.06317960729862,39.617650987707741],[-106.0635057685103,39.617648002474077],[-106.06488402849789,39.618734624554179],[-106.06625688511903,39.620677257803777],[-106.06634537995431,39.621248599605046],[-106.06628546591813,39.622303349721918],[-106.06610738209956,39.623012285874992],[-106.06601760985997,39.623972701985529],[-106.0661949804162,39.624498174890782],[-106.06646084760432,39.624977781676606],[-106.06681562554768,39.625461074398743],[-106.0676436287962,39.626007602400968],[-106.06770258073672,39.626124190174508],[-106.06864956764124,39.626309203316879],[-106.06992210310642,39.62640111397674],[-106.0714013076808,39.62674338632381],[-106.07143079128674,39.626860244080568],[-106.07193376699747,39.627270076674201],[-106.07219983720485,39.627546944690657],[-106.07214016571379,39.628187222902667],[-106.07145885555454,39.628963881731778],[-106.07134035519215,39.629190229413517],[-106.07136972920362,39.629536846735483],[-106.07157673158781,39.62985480042046],[-106.07231594176039,39.630564296409901],[-106.07243415106861,39.630815493778222],[-106.07275863512565,39.632303689943996],[-106.0729951229124,39.632833107385046],[-106.07334993948334,39.633289355532263],[-106.07491778442007,39.634572331800314],[-106.07506389090946,39.63474217572341],[-106.07521333643675,39.634916493195526],[-106.07530193817153,39.635370685378192],[-106.0751240492874,39.63587689903629],[-106.07482778400838,39.636334662213613],[-106.07444250376953,39.637135631872802],[-106.07450062566674,39.638162258230594],[-106.07458940347132,39.638368672610994],[-106.0745891896723,39.638873241423838],[-106.07474796959369,39.639367335230567],[-106.07479578961122,39.639515558602824],[-106.07517993976941,39.640476104654674],[-106.07562353144999,39.641206323127335],[-106.07733858241401,39.64379438531936],[-106.07748626634505,39.644275060548729],[-106.07733785837191,39.64468640513315],[-106.07730823552708,39.644984010899009],[-106.07718983936927,39.645169822334466],[-106.07689300276172,39.645897893304586],[-106.07641854317137,39.647456549729071],[-106.076422941323,39.647740332669919],[-106.07644702785073,39.648965492918592],[-106.07623959607183,39.649399903769101],[-106.07606177995125,39.649653839519814],[-106.07594327060569,39.649974799389931],[-106.07588355150392,39.650727704189499],[-106.07585343009413,39.651322654248439],[-106.0760899888478,39.651779985966655],[-106.0763859837339,39.652146661842707],[-106.07668146298704,39.652833202725589],[-106.07665159310552,39.652950609138529],[-106.07674041672421,39.653017360120188],[-106.07682912446019,39.653476060427188],[-106.07679900933861,39.654071011732057],[-106.07679862935125,39.654868418175667],[-106.07691658084299,39.655169168446974],[-106.07697590378771,39.65523619323929],[-106.07703521864764,39.655420355297949],[-106.07714349528376,39.655590538087829],[-106.07756744170737,39.656266880997855],[-106.07804076133561,39.65683914124557],[-106.07851407826894,39.657573581268501],[-106.07866174782691,39.658004697957459],[-106.07866106151404,39.658851663660776],[-106.07830519571087,39.659792022628885],[-106.07830491274156,39.660571408152343],[-106.07857099732198,39.661073503782369],[-106.07877816679279,39.661323866285954],[-106.07975477205055,39.661693223837325],[-106.08003935923088,39.662096033498905],[-106.08010974582665,39.662194488382205],[-106.08028740923366,39.662584784510152],[-106.08061294611619,39.662973694674164],[-106.08164884916586,39.663522684780929],[-106.08200391636677,39.663911324812574],[-106.08238848783485,39.664439340605682],[-106.08247733211473,39.664623215365566],[-106.08256616381826,39.664689962681337],[-106.08262511845372,39.664919178017442],[-106.08262490914625,39.665536372080545],[-106.08226920144656,39.665994705789927],[-106.08229854671195,39.666521527349651],[-106.08244630520315,39.666885055477685],[-106.08303819436408,39.66734356210285],[-106.08357111271987,39.66764043416395],[-106.08434085752724,39.66798464741116],[-106.08596898930101,39.66832984776061],[-106.08626513690074,39.668489260096607],[-106.0864724024913,39.66864950322045],[-106.08659073127548,39.669040334737566],[-106.08659059652817,39.669450301840492],[-106.08662013493134,39.669522111574757],[-106.08673846012225,39.669795812249809],[-106.08697521740359,39.670000831548641],[-106.08839640069209,39.670388474014665],[-106.08848525754843,39.670617396629481],[-106.08884041098757,39.670960963056139],[-106.08901775100107,39.671418811339095],[-106.08907671102642,39.671693068029036],[-106.08913613727741,39.671742074302763],[-106.08925442923066,39.672128400172383],[-106.08978694244625,39.672929809799165],[-106.09026054773875,39.67338938881943],[-106.09188864986814,39.674649033841384],[-106.09197750941939,39.674900476237354],[-106.09230323045658,39.674992020172283],[-106.09254002187392,39.675197028198752],[-106.09277681418955,39.675564215934159],[-106.09301356877594,39.676044030014019],[-106.09307255036086,39.676318291848744],[-106.09313153643735,39.676732196130423],[-106.09322040317515,39.676983645462514],[-106.09327941170953,39.677005621411993],[-106.09333878855318,39.677189765558353],[-106.09342765888424,39.677256502116563],[-106.09345711913399,39.677368851696286],[-106.09517429730862,39.67878979282041],[-106.09535173883174,39.67911248201947],[-106.09544052112788,39.679796416825845],[-106.09526222440861,39.68089733944305],[-106.09573583509102,39.681397435243369],[-106.0957357991584,39.682064188982359],[-106.09529106931238,39.682816228464134],[-106.09472835114369,39.683411689706389],[-106.09455044339492,39.684008043151891],[-106.09457946796175,39.684692532994795],[-106.09478680092596,39.685059993782566],[-106.0949351253558,39.685175732613338],[-106.09528997875762,39.685631897359634],[-106.0955268249722,39.686206311846064],[-106.09579317096234,39.686618266169759],[-106.09682949622018,39.68748697264261],[-106.09795484003112,39.68815209629966],[-106.09878426082115,39.688540700085611],[-106.09934691520948,39.689044448520917],[-106.09946496731253,39.689318138892695],[-106.09949444463027,39.690349514149354],[-106.09961284258472,39.690668252717231],[-106.09973125760716,39.690941938034285],[-106.10046400529957,39.691574716729569],[-106.10076768527294,39.691833138526476],[-106.10147839818976,39.692407549807719],[-106.10215953138091,39.693184967880669],[-106.10221859111925,39.693369110358077],[-106.10227798592921,39.693413597892636],[-106.10251487975448,39.694078101797082],[-106.10248501346621,39.694537903668589],[-106.10230708775116,39.69487747062707],[-106.10233662795096,39.695314177988593],[-106.10260303861982,39.695748637550253],[-106.10316578014472,39.696319939717718],[-106.10349159730164,39.696753841374452],[-106.1035506507518,39.696983034638691],[-106.1039060314647,39.697578824356356],[-106.10488325386508,39.698930057366425],[-106.1050610942402,39.698950896953384],[-106.1052977095877,39.699822619306559],[-106.10556449485405,39.700369693020953],[-106.10565310377535,39.70082836717571],[-106.10565309658882,39.701765423347084],[-106.10600820151897,39.702203531612369],[-106.10651194528926,39.702545623596897],[-106.10748960966075,39.703027356079389],[-106.1077856243098,39.703393946594474],[-106.11033331562582,39.704148980586716],[-106.11074811719986,39.70437477732024],[-106.11101465722611,39.704561431184217],[-106.11116301579192,39.704879870529794],[-106.11113320340259,39.705339674389535],[-106.11083683391901,39.705702917341448],[-106.11057005853412,39.706092901283021],[-106.11057011333136,39.706665034907218],[-106.11098461127482,39.707007961729211],[-106.11169586407911,39.70748770382324],[-106.11190301019374,39.707742509022431],[-106.11208099160434,39.70852016970548],[-106.11214001271513,39.708654761169591],[-106.11214011602141,39.709046695219826],[-106.11252512946061,39.709844903837954],[-106.11264331990422,39.710213183711865],[-106.11267290861305,39.710875147257518],[-106.11258401582411,39.711083231041201],[-106.11258413530004,39.711885127004585],[-106.11276164599344,39.711951000083396],[-106.11282111356694,39.712090087685944],[-106.11365057927276,39.712820961920336],[-106.11486544469329,39.713394953211015],[-106.11551736377308,39.713920284746486],[-106.11599141732493,39.714402278485736],[-106.11655435198762,39.714788801711478],[-106.11723584270824,39.71517869076073],[-106.11741342077529,39.715384214502826],[-106.11776896318496,39.71572768257564],[-106.1183914795072,39.716392931421545],[-106.11853953444241,39.716688839437367],[-106.11865813990771,39.71705711041362],[-106.11895420396409,39.717329062422799],[-106.11913187725256,39.717629189042789],[-106.11942830422834,39.717946189560692],[-106.11969491881476,39.718177882887701],[-106.12019878655256,39.718290152055062],[-106.1202582801772,39.718406705800597],[-106.12070235335476,39.718654704628221],[-106.12108789410503,39.719069948480076],[-106.12135438023239,39.720306265215775],[-106.1220064259746,39.720786506288363],[-106.12378452429854,39.721724378259381],[-106.12440697234879,39.721907556028832],[-106.12514755065556,39.721999499184854],[-106.12559202358341,39.72217989311234],[-106.12571059131943,39.722228297671911],[-106.12585860313554,39.722339487907327],[-106.125829248887,39.722709184512524],[-106.1255922939763,39.722869159478229],[-106.12529590652642,39.723029709619745],[-106.1251774456899,39.723301159954033],[-106.12508858074872,39.72366693108772],[-106.12499963226425,39.723712835524729],[-106.12505885729261,39.724059151558208],[-106.12559248891073,39.724810821250664],[-106.12603671839513,39.725130882659997],[-106.12630383963139,39.72556977942066],[-106.12659995758669,39.725774137040389],[-106.12668900578419,39.726003027329433],[-106.1266296855344,39.726391042136697],[-106.12725201860029,39.727101293706234],[-106.12781520029969,39.727514799549645],[-106.12843772560505,39.727765535381664],[-106.12923778226509,39.727789292156992],[-106.13264572185676,39.726873103484408],[-106.13350498018896,39.726459267688462],[-106.13365334144972,39.726345194063718],[-106.13412735996728,39.726322546375691],[-106.13454233491613,39.726368045559624],[-106.1348388616049,39.726617431404421],[-106.13495745000219,39.726755921515441],[-106.13504626912926,39.727146994807441],[-106.13495746437523,39.727512772485007],[-106.13501703345834,39.728566365506495],[-106.13510600799398,39.728678121021382],[-106.13516529949769,39.729046952522296],[-106.13546173725322,39.729823415480304],[-106.13655887396425,39.731038049768699],[-106.13664763470082,39.731424611019015],[-106.1364997630219,39.731813487885624],[-106.13596606582678,39.732224159272029],[-106.13489920952736,39.732613019193131],[-106.13442524940031,39.732775329000418],[-106.13412885027232,39.732980952975069],[-106.13386212429477,39.733461083666057],[-106.13380283009614,39.7338040485932],[-106.1336844554979,39.734125061655199],[-106.132914204939,39.734812834578975],[-106.13270641563062,39.73510769434538],[-106.13273614717158,39.735409231588569],[-106.13318086983108,39.735909458806354],[-106.13347762469192,39.736393099771426],[-106.13350720441761,39.736618060785325],[-106.13356651119267,39.737099518021232],[-106.13338868698723,39.737398588724403],[-106.13327044174638,39.73799440382605],[-106.13330038888299,39.740692619443742],[-106.13300420355404,39.741425316666685],[-106.13291514278015,39.742156002259698],[-106.13273765634126,39.743211898165889],[-106.13264895938505,39.743965101033623],[-106.13217492379952,39.745086970199004],[-106.13217527953238,39.746780851249504],[-106.13211596736741,39.74712380722238],[-106.1320270107981,39.747259830432299],[-106.13193824646824,39.747697678741687],[-106.13173078953652,39.748082628439143],[-106.13119725583476,39.750006962036295],[-106.13106806641882,39.750895705384465],[-106.1310388487142,39.752544825044126],[-106.13130581094865,39.753366644848676],[-106.13127625368084,39.754191345785237],[-106.13127598508459,39.755313095395842],[-106.13142465985737,39.755771159694966],[-106.13157261957119,39.756364378124282],[-106.13154295809882,39.757026899974399],[-106.13121699721144,39.758196874976576],[-106.13124668832823,39.758696639827292],[-106.13151362630816,39.759180584230592],[-106.13181028145601,39.759452495757358],[-106.13278883695625,39.759749289329932],[-106.13459737559189,39.760092021911795],[-106.13524982018613,39.760279366071408],[-106.13596116102532,39.760209335726387],[-106.13616869161889,39.760139721718311],[-106.13747320441324,39.759248477618158],[-106.13818490278193,39.759200951908603],[-106.14037885550538,39.759819128856535],[-106.14115005468523,39.760370171106956],[-106.14174308111329,39.760846374383917],[-106.14215858067828,39.761418926580298],[-106.14278134942708,39.761993939251674],[-106.14479768994752,39.763158885674166],[-106.14592459233548,39.763661334495175],[-106.14725911874179,39.764098651120825],[-106.14776332783941,39.76412069876239],[-106.14782257532565,39.764327343010699],[-106.14814897459087,39.764671003647159],[-106.14868255410671,39.764967551693061],[-106.14963188830907,39.765539303851604],[-106.15040278385834,39.766108304450043],[-106.15072936099,39.766636655718699],[-106.15102585623772,39.766935551259259],[-106.15108540016801,39.76713767953769],[-106.15147081964572,39.767232974069017],[-106.15268700469144,39.767919170206383],[-106.15360636121446,39.768351530464173],[-106.15417008549628,39.768854992293434],[-106.15437759093703,39.769177285833223],[-106.1545851978874,39.769242793459306],[-106.15464446603488,39.769426913786397],[-106.15514893564395,39.769746250151762],[-106.1558607157593,39.770090554868609],[-106.15615748948477,39.770317350189778],[-106.15636499133225,39.770572066813294],[-106.15654320810147,39.770800043295452],[-106.1565432566105,39.770890145385081],[-106.15666197167025,39.771051141549258],[-106.15692893120975,39.771827847209948],[-106.15710720457281,39.772560384516382],[-106.15719716366202,39.774163262365846],[-106.15743474739341,39.774710498866384],[-106.15779057636566,39.775193495325311],[-106.15847315943766,39.775925500415092],[-106.15879974465415,39.776404273470845],[-106.15885904334438,39.776633431925262],[-106.15897771528496,39.776681800311295],[-106.15921534213551,39.777251562827779],[-106.15921520289663,39.777526366819991],[-106.15942370097576,39.778578452305254],[-106.15957191850607,39.779104056154402],[-106.1596018952871,39.779585789478517],[-106.15972072353458,39.780273863141417],[-106.15995877438989,39.781303121678377],[-106.16013686270006,39.781738331144453],[-106.16049298901466,39.782126700364124],[-106.16141258538786,39.782558992784907],[-106.16233212786213,39.782878647219768],[-106.16245136933465,39.783589245037774],[-106.16230316977062,39.783978154687581],[-106.16165118601215,39.784552306573296],[-106.16070216981339,39.785260076170019],[-106.16055389479091,39.785536361333392],[-106.16058388235173,39.786018093117427],[-106.16082150111743,39.786497749259034],[-106.16094052070605,39.786978590738727],[-106.16097049030054,39.787915329941228],[-106.16085219475406,39.788281418697345],[-106.16037790943686,39.78894388744699],[-106.1597550975689,39.789585309152471],[-106.15945881612022,39.790133371438628],[-106.1596372233323,39.790455953266004],[-106.15996330010231,39.790682444722613],[-106.16097216655687,39.791185924054624],[-106.16132832700748,39.791551768315827],[-106.16162538819383,39.792287608996325],[-106.16177378987875,39.792560925535319],[-106.1623673139735,39.793041525160952],[-106.16337609778304,39.793450377246806],[-106.16349503293003,39.793751019952651],[-106.16364343551329,39.794001803936958],[-106.16376234820241,39.79436551563515],[-106.16370333876971,39.794893189626627],[-106.16355549404024,39.79528209887728],[-106.16319963003372,39.795673091726279],[-106.16281408928343,39.795992305621837],[-106.16245832319325,39.796540971166905],[-106.16231006074717,39.796862308897438],[-106.16213257251165,39.797616417865143],[-106.16207364662228,39.79782423632129],[-106.16198523982193,39.798969388911551],[-106.1618668328843,39.799655321775255],[-106.16186727036387,39.800614876720708],[-106.16225350641015,39.801462445605281],[-106.16228338168156,39.801849581310691],[-106.16243172048443,39.801987743513308],[-106.16266939674229,39.802467393204395],[-106.16281817122807,39.803042537776022],[-106.16281867158969,39.804069662756099],[-106.16275936301801,39.804254965933978],[-106.1627301866359,39.805557189254955],[-106.16284900679851,39.805763227402046],[-106.16302758109721,39.806243468394577],[-106.16335396688771,39.806699705961982],[-106.16368055839241,39.806908161526259],[-106.16465983793476,39.807092050651455],[-106.1662321492951,39.807112306159929],[-106.16694430221131,39.807064598189612],[-106.16780464840332,39.806884751548424],[-106.16833876062012,39.806951459923347],[-106.16857612695921,39.806998622800634],[-106.16925881333748,39.807388184735039],[-106.16952589235291,39.807637763790424],[-106.16985265274089,39.808048927822831],[-106.1702684182072,39.80836909937571],[-106.17077279888304,39.808575742572529],[-106.17178167432077,39.808736741655572],[-106.17276063406287,39.808641260309052],[-106.1736207987952,39.808344246944216],[-106.17421445943386,39.808347255680204],[-106.17483769440831,39.80845807299437],[-106.17572789610877,39.808917570254067],[-106.17807317812667,39.810632701128917],[-106.17914200173655,39.811180460448917],[-106.17964625754657,39.81126994037421],[-106.18071452330265,39.811250061476798],[-106.1813968548464,39.810950297799423],[-106.18187143750593,39.810607594195567],[-106.18225642309736,39.810171196221305],[-106.1824936223498,39.809781346429105],[-106.18284937586358,39.809322723737502],[-106.18314616755535,39.80927915839748],[-106.18356128443803,39.809301948569441],[-106.18388778790784,39.809415753022009],[-106.18436271641878,39.80969020910365],[-106.184985762747,39.809575728151955],[-106.18712167442163,39.809184490705164],[-106.18774489502306,39.80918712745742],[-106.18821957919222,39.809276872893207],[-106.18919920009438,39.809708317749504],[-106.18982251771384,39.81007584590823],[-106.19011940103378,39.810122353846126],[-106.1903571868861,39.810489320846344],[-106.1907727376551,39.810854462770536],[-106.19124821054507,39.811538840401397],[-106.19142688815002,39.811928932091604],[-106.19151624177471,39.81241004293247],[-106.19151672506833,39.813072271689492],[-106.19139817619691,39.813163582558502],[-106.1913389664399,39.813371418199885],[-106.19110238343174,39.813963996704068],[-106.19104342340638,39.814334006871327],[-106.19107360949488,39.81485627457959],[-106.19119234341923,39.815156889254283],[-106.19125191879057,39.815223849045253],[-106.19137106144838,39.815569502174107],[-106.1914598176934,39.815613641751042],[-106.1916090413368,39.816368947147289],[-106.19153050522479,39.816599502889396],[-106.19089906503854,39.818453010032215],[-106.19092904541282,39.818772554239814],[-106.19107795464589,39.819298104202339],[-106.19146429040519,39.81987077107344],[-106.1915533215347,39.820099605349377],[-106.19161284121046,39.820121525345535],[-106.19182085869092,39.820326616687495],[-106.19179160774866,39.821106266887647],[-106.19155517835237,39.8217934477887],[-106.19155596976815,39.822685421866318],[-106.19170455650602,39.822958696237286],[-106.19197172804793,39.823163179563807],[-106.19215005620826,39.823255951401251],[-106.19324788013046,39.823118528079007],[-106.1939893046502,39.82272798037684],[-106.19464173846465,39.822153645587306],[-106.19487864486631,39.821790806690444],[-106.19541248669022,39.821285260803855],[-106.19615385910768,39.820872179225049],[-106.1969549910511,39.820620641834665],[-106.19745912918181,39.82052985005916],[-106.19831982571677,39.820597551145688],[-106.19873547889367,39.820710383381851],[-106.1993591243982,39.821235519734877],[-106.19986406113121,39.821694308562293],[-106.20016116094511,39.821875942731744],[-106.20039860723428,39.821945561216729],[-106.20146698348314,39.821943517612837],[-106.20211959246909,39.821761065350316],[-106.20300972589757,39.821693272267801],[-106.20309872378942,39.821624777445557],[-106.20330644482581,39.821622623441144],[-106.20381095126579,39.821531799872105],[-106.20470060409565,39.820914399402767],[-106.20535330920129,39.820822021126205],[-106.20582809308345,39.82091169272541],[-106.20627373202454,39.821276464666852],[-106.20663065514483,39.821871915544634],[-106.20689808450322,39.822193487451223],[-106.20764045405065,39.822717344373849],[-106.209392998898,39.823771266576628],[-106.21069963980125,39.824798280543625],[-106.21100518108389,39.824876179830959],[-106.21144189526264,39.824979741619622],[-106.21304471969822,39.825071117387964],[-106.21378695898993,39.825230033637865],[-106.2138167381416,39.825324326688445],[-106.21420296520475,39.825712209716876],[-106.21488694425871,39.826606043929345],[-106.21502774260307,39.826825313196466],[-106.21545183545207,39.827496609567142],[-106.21580844685694,39.827839747749515],[-106.2168184182393,39.828662572587497],[-106.21788773143101,39.829142392821737],[-106.21851143083445,39.829347574515744],[-106.21871911773488,39.829507570170229],[-106.21898685611374,39.829986783634695],[-106.21928502312622,39.830740485813457],[-106.21949296874145,39.831017600961239],[-106.21996821345935,39.831314437704179],[-106.22124480571637,39.831679424837127],[-106.22231363830939,39.831839350215482],[-106.22297113682541,39.831868467715907],[-106.22352429961443,39.831862635110909],[-106.22476635793697,39.831926108037393],[-106.22550846517632,39.832175051640192],[-106.22642735457539,39.832917664931315],[-106.2274426951882,39.834380039361662],[-106.22790778175688,39.835231057611502],[-106.22791010749516,39.835361674535378],[-106.22816746314595,39.836052706103615],[-106.22817608607437,39.836557171409751],[-106.22868372224481,39.837560898214157],[-106.22985026459129,39.838872978481277],[-106.23132945479263,39.840060111610228],[-106.23175559490218,39.840361921038934],[-106.23276329983507,39.840648536649709],[-106.23284397124252,39.840584610338844],[-106.23292652731544,39.840646801921658],[-106.23358545505108,39.840955145529399],[-106.2340823177263,39.841391337671368],[-106.23416370598937,39.84414297775146],[-106.23442045797229,39.844897078426293],[-106.2343461672983,39.845276275817014],[-106.2344418756053,39.846032080014851],[-106.23438029429595,39.84697876555402],[-106.23473142418095,39.847984130438832],[-106.23476124016354,39.849119051337397],[-106.23503320870905,39.85025139622816],[-106.23519973839643,39.850371259757942],[-106.23516351742586,39.850592386945308],[-106.23671049449854,39.85179223167269],[-106.23745869590878,39.85228429617959],[-106.23803736186872,39.852530399866531],[-106.23845319021713,39.85284129897822],[-106.23886366819968,39.852895481824191],[-106.23969418313773,39.853454224412118],[-106.24002099832293,39.853446229599811],[-106.24068340703029,39.853817562233438],[-106.24174579780443,39.853801683721542],[-106.2433044008735,39.854095833850863],[-106.2464327164768,39.855256060172991],[-106.24765843983423,39.855301450022374],[-106.24848531030715,39.855734038882062],[-106.25064937069122,39.857359514383198],[-106.25097662694922,39.857355987846312],[-106.25163683119086,39.857601146549662],[-106.25360230999824,39.857643004188454],[-106.25368260950317,39.85757906749685],[-106.25376594441545,39.857641236789817],[-106.25484140657528,39.858080103987078],[-106.25525696722571,39.85839095589408],[-106.25607931378289,39.85857126627706],[-106.25804338043861,39.858554497247304],[-106.26460950641342,39.86345654703824],[-106.26593020325593,39.864009761970685],[-106.26908528685806,39.866362896234534],[-106.27112918409816,39.866403597073983],[-106.27120948899298,39.866339648549534],[-106.27349950575628,39.866629888612572],[-106.27432104832128,39.866936207012998],[-106.27489755113801,39.867308288521258],[-106.27563348425643,39.867489409746881],[-106.27653554821025,39.867920964780978],[-106.2770255666213,39.868041711699156],[-106.27792371122551,39.868221032146408],[-106.27939076878063,39.868204869455695],[-106.28020811082337,39.86832199475338],[-106.28135834695081,39.868755285462598],[-106.28268257237576,39.869682179639589],[-106.28292923987131,39.869742522617926],[-106.2833380209363,39.869738002515469],[-106.28407756977373,39.86991451794772],[-106.28531443403728,39.870463934319275],[-106.292987705752,39.87618998968059],[-106.29555049684964,39.878098503081269],[-106.29633212636824,39.878058240730496],[-106.29678822259756,39.878273886416132],[-106.30112671980554,39.88152739070707],[-106.30120975468051,39.881589527960003],[-106.30129279135211,39.881651665845972],[-106.30294437454471,39.882835931869721],[-106.30310954597934,39.883086352835804],[-106.30407833499582,39.882890765194091],[-106.30675781724888,39.882811071223145],[-106.30839700369053,39.882855669417559],[-106.31233711244305,39.879851480743227],[-106.31363538464112,39.87926918312008],[-106.31525423322474,39.878367894302094],[-106.31771963077593,39.878339925716517],[-106.32024048492285,39.877239116257691],[-106.32089568375173,39.877105522959504],[-106.32328212477931,39.877078334934247],[-106.32450995827932,39.876812052619449],[-106.32516794098728,39.8768045403435],[-106.32549358387102,39.87667468476468],[-106.32862019537023,39.876638929506356],[-106.32902183752365,39.876318997532813],[-106.32910208672293,39.876255008615026],[-106.32918270692645,39.876191017569383],[-106.32926332623161,39.876127025774665],[-106.3293443048629,39.876063029783786],[-106.32942882016145,39.876125128556254],[-106.33032450966999,39.87567338502128],[-106.33114798271454,39.87566394229826],[-106.33131482321899,39.875788164638585],[-106.33173039195427,39.876265416409439],[-106.33256097426596,39.877661401206659],[-106.33315487924638,39.878213182816758],[-106.33333284808057,39.878553504469082],[-106.3338078116258,39.879151699431752],[-106.33380743074012,39.879264324478008],[-106.33392632276797,39.879402611581767],[-106.3340449012838,39.879770646485952],[-106.33410383885126,39.880454700794566],[-106.33413303858958,39.881094054527821],[-106.33425199080456,39.881462084490046],[-106.33466741131781,39.882078978527041],[-106.33505338954762,39.882516019845461],[-106.33549864041652,39.882880293608352],[-106.33609239268333,39.883062663445735],[-106.33674564306635,39.883203798763411],[-106.33716137619334,39.88338370272043],[-106.33739902729837,39.883520617348779],[-106.33766634616401,39.883567087967968],[-106.33775536202212,39.883840856937489],[-106.33825984061434,39.884506264046486],[-106.33846776017843,39.884805692932908],[-106.3389129634366,39.88526005425765],[-106.33947715663901,39.885649972657156],[-106.34090278029994,39.886246164659426],[-106.34116954490503,39.886657528858912],[-106.34108055509806,39.887023443177924],[-106.34084277553391,39.887368565387234],[-106.33971382588543,39.887895157807428],[-106.33917886116744,39.888351816683716],[-106.33885183487814,39.889220520256949],[-106.33888123404246,39.889679679210737],[-106.33902961237119,39.890317656640995],[-106.33914727460541,39.892082196759503],[-106.33932562252866,39.892494585288425],[-106.3395926188991,39.892766297100017],[-106.3405133974552,39.893201644411157],[-106.34113694684002,39.893613388676059],[-106.34170135024817,39.893728498036459],[-106.34277092215468,39.89354493802788],[-106.34392927096746,39.893247720435113],[-106.34443432448145,39.893318454087932],[-106.34499873956774,39.893546168287557],[-106.3453254828877,39.893731576778784],[-106.34571144854111,39.894254167677708],[-106.34571146560911,39.894348771188724],[-106.34577089904661,39.894415652386847],[-106.34574078302673,39.894988119414499],[-106.34502740930003,39.896041511891148],[-106.34487872195083,39.896588320565151],[-106.34475977063417,39.896841972520981],[-106.34461099165681,39.897141020853724],[-106.34470008836331,39.897734624982029],[-106.3445216065911,39.898534053444294],[-106.34481787636169,39.899909100354101],[-106.3446991109963,39.900640254917228],[-106.34484710933768,39.901143086357663],[-106.34478776393506,39.901715882418934],[-106.34434186807579,39.902356234206685],[-106.34404438468125,39.902697542069404],[-106.34395524126234,39.903018418410831],[-106.344074044357,39.903224266187436],[-106.34508391782298,39.903775666340266],[-106.34523233028769,39.903981168661957],[-106.34520255203434,39.90434640751257],[-106.34496466377406,39.904781628891371],[-106.34472678270029,39.905329471078119],[-106.34469707271893,39.905604609890936],[-106.34463692512075,39.907596440481939],[-106.34436925052229,39.907892362397071],[-106.34383446726396,39.908326510414582],[-106.34303183782896,39.908898916359888],[-106.34276443452171,39.909059671981545],[-106.34243754567466,39.909450878594185],[-106.34216980819413,39.910044110797436],[-106.34211008370245,39.910224991671647],[-106.34190200513657,39.910822035182292],[-106.34154521137371,39.91146134616131],[-106.34121802248936,39.911875062983732],[-106.34062368002938,39.912332414415602],[-106.33878108266805,39.913407823907384],[-106.3384837510888,39.913704065227122],[-106.3382160396594,39.914414419470106],[-106.33806713491788,39.915123393849584],[-106.33830432608552,39.915945037977039],[-106.33928438536554,39.917136516309334],[-106.33931399653225,39.917248795774618],[-106.33955171411263,39.917457775614992],[-106.3399970871524,39.918096829677062],[-106.34166078412659,39.919334444111989],[-106.34323491457536,39.92088841265376],[-106.34344297158168,39.921187827957084],[-106.34388852248786,39.921552061532637],[-106.34489887745086,39.922058414261535],[-106.34617655487273,39.922471548306881],[-106.34638456606496,39.922469134295646],[-106.34638442862274,39.92253671486597],[-106.34760279118468,39.923112693309733],[-106.34810774408737,39.92352127136904],[-106.34893968555008,39.924939626333156],[-106.34935534052363,39.925398790508126],[-106.34989024146124,39.925766473723996],[-106.35197052496191,39.926728797482667],[-106.35262427121499,39.927095083388458],[-106.35301045066743,39.927392394575179],[-106.35351554550392,39.928120788953748],[-106.3537236537142,39.928604886056071],[-106.35375306096334,39.928946906303565],[-106.35375296664024,39.929406401120588],[-106.35348535941542,39.929837474104367],[-106.35309884309477,39.930229405187909],[-106.3521477338214,39.930569341128916],[-106.35110753053645,39.930730116147856],[-106.3500670667401,39.93112063756935],[-106.34988879876691,39.931577704104953],[-106.34988867839266,39.932037190217287],[-106.35000734494336,39.932288080964575],[-106.35134439202237,39.933272577825925],[-106.35196858010931,39.933639211011467],[-106.35268183615672,39.934257063970598],[-106.3529193022088,39.934596656858034],[-106.35300855073059,39.934987539194395],[-106.35285953549632,39.93652090689266],[-106.35280008139756,39.936566650027061],[-106.35282934581456,39.938350209622577],[-106.35288854838505,39.938718922544503],[-106.35303728873485,39.938991979396611],[-106.35306705351347,39.939518695082036],[-106.35312603150514,39.939653147511926],[-106.35318568592821,39.939859673120253],[-106.35345311977819,39.940568308268837],[-106.35372034252406,39.940709343742839],[-106.35383935312953,39.941050326867881],[-106.35431472810316,39.941693464633019],[-106.35443358509671,39.941989398306703],[-106.35482003584038,39.94242635092705],[-106.35529553837479,39.9427226195956],[-106.35669250398153,39.943318949310637],[-106.35719779015918,39.943659902901793],[-106.35782199980569,39.944576084453864],[-106.35791118095385,39.944849832119957],[-106.35800040342448,39.945033488813152],[-106.35808962679346,39.945217136060279],[-106.35829766313853,39.945489492056502],[-106.35826771690022,39.945584444915639],[-106.35835681809831,39.94565097030894],[-106.35847586104313,39.945991947402106],[-106.35862453312096,39.946129847789692],[-106.35859473061309,39.946472567632981],[-106.35838633853518,39.946884940026614],[-106.35835665550323,39.947344779960893],[-106.35859450064439,39.947459115863005],[-106.35865404996457,39.947917911351333],[-106.35862389980869,39.948760665494518],[-106.35829687711265,39.949241996254152],[-106.35823732599583,39.94944991499932],[-106.35826695872213,39.95013429981028],[-106.35788060409821,39.95059381352047],[-106.35791004099175,39.951120521153754],[-106.35817754580863,39.951347140395093],[-106.3582669039249,39.951463215994501],[-106.35820714529724,39.951918904369109],[-106.35793975366808,39.952494138380374],[-106.35758295631197,39.953043395475291],[-106.35680959488725,39.953543469188716],[-106.35627442894662,39.953842537134676],[-106.35591762170904,39.954207096880495],[-106.35585791338703,39.954369966892152],[-106.35585789811567,39.955054698421819],[-106.35594711250148,39.955125727699553],[-106.35594705590762,39.955215828387203],[-106.3563036682108,39.955878362202448],[-106.35636320046299,39.956039836589177],[-106.35648213650829,39.956245666834498],[-106.35645211750645,39.956633438412631],[-106.35624397875343,39.956838581041474],[-106.35558981298712,39.957319235924373],[-106.35481668242942,39.957778748187465],[-106.35437075782407,39.958189384015171],[-106.35440024592157,39.958738630489066],[-106.3545785219796,39.958966290383948],[-106.3550840174647,39.959311760055293],[-106.35657044898555,39.95978991187333],[-106.35674899184323,39.95988242461609],[-106.35704614375943,39.960478081449942],[-106.35704617609878,39.960590700886151],[-106.35713530155138,39.960639210342414],[-106.35749215999294,39.96144139746896],[-106.35764058862733,39.962101860458901],[-106.35767037047395,39.962515954272938],[-106.35781869939534,39.962856578082913],[-106.35817583631464,39.963154218621256],[-106.36010842779946,39.963523484314749],[-106.36034624599114,39.963615296604907],[-106.36117911361693,39.963749678267213],[-106.36204105252192,39.964298154390328],[-106.36230895708913,39.964781530134736],[-106.36242764250444,39.965009877690186],[-106.36233852513668,39.965902874012357],[-106.36227898300301,39.96612881223615],[-106.3621895449367,39.96768851496514],[-106.36221942829295,39.967755733495984],[-106.36227882669617,39.968259576394452],[-106.36302213498307,39.970201406500081],[-106.36296247247515,39.970661597741447],[-106.36260566703419,39.971323488291183],[-106.36236742304105,39.97150647564726],[-106.36239739173723,39.971780923062241],[-106.362665035793,39.972102121395238],[-106.36287314400332,39.972446546439315],[-106.36278397273664,39.973042223923329],[-106.36248621894917,39.973545750424364],[-106.3618615718231,39.974228802968135],[-106.36162352006943,39.9749388457493],[-106.36162352815427,39.975510955613196],[-106.36192115797421,39.975921901419831],[-106.36239685095146,39.976380307018793],[-106.36331887547087,39.976905535646715],[-106.36364587570901,39.977320633623854],[-106.36394332047598,39.977961325997192],[-106.3639433150861,39.979470424077455],[-106.36403252587866,39.979631545377856],[-106.36403233274086,39.979861287489854],[-106.36421087829349,39.980318677507881],[-106.36438923340324,39.980546319232758],[-106.36453818575545,39.980913957351241],[-106.36465693674782,39.981070228644874],[-106.36465699693493,39.981164828545374],[-106.3650138913091,39.981665167410327],[-106.36557902325097,39.98212700848218],[-106.36694704334266,39.982786606010933],[-106.36733375998763,39.983110899616491],[-106.36754188616423,39.983545406183381],[-106.36789909584706,39.984572780527891],[-106.36911859387956,39.985580973859278],[-106.36947537865926,39.986036250394136],[-106.36953497020028,39.98619771687499],[-106.36959449706258,39.986264583382805],[-106.36989173970862,39.98727464244638],[-106.36995119021412,39.987318988849964],[-106.37018920962844,39.987892787322806],[-106.37090329661744,39.988807827739635],[-106.37090327505788,39.988897927398284],[-106.3709627264617,39.988942264488912],[-106.37108170832107,39.98931024836002],[-106.37108164274407,39.990112104529615],[-106.3709328691566,39.99045172087785],[-106.37090343046644,39.990681808581591],[-106.37039777328457,39.992377067140268],[-106.37042754794467,39.992786652064581],[-106.37054632319152,39.99301498864213],[-106.37060583388416,39.993153934576945],[-106.37057616432696,39.993793962321895],[-106.37012996573546,39.994893888248647],[-106.3698621276436,39.995302487722249],[-106.36986209440593,39.995924137165076],[-106.37042748057102,39.996336406766353],[-106.37182566878488,39.9969505387525],[-106.37259931497556,39.997067516892777],[-106.37328351501509,39.997343218729974],[-106.37411680125578,39.997842377946597],[-106.37444409793798,39.998117799323559],[-106.37560433141623,39.998964451786435],[-106.3761400650921,39.999264417949419],[-106.37791220668737,39.999991156569237],[-106.3786858142505,40.000450459045773],[-106.37972677212026,40.000586731554527],[-106.38041142760564,40.000772283697053],[-106.38044095702566,40.000893563737861],[-106.38050038866655,40.001136110098685],[-106.38038149394373,40.001340230786816],[-106.38034480674754,40.001372200886223],[-106.37954862631794,40.002030360882159],[-106.37826925557179,40.004293425414801],[-106.37817991093024,40.004911638521733],[-106.3784181612116,40.005507930242757],[-106.37874540848645,40.005850904978729],[-106.37942979537553,40.006239183689388],[-106.38011400619484,40.006145445594427],[-106.38082829171155,40.005690973989466],[-106.3814529020067,40.00578264568265],[-106.38186937983703,40.006102019690807],[-106.3820778509667,40.006581538229177],[-106.38207786354313,40.007108591333967],[-106.38192919775348,40.007542814513279],[-106.38133446901794,40.00820758927226],[-106.38026294866559,40.008941104350434],[-106.3798466208539,40.009738883822266],[-106.37922167908042,40.010286887627714],[-106.37919189094559,40.010516978683079],[-106.37937049309207,40.010677031158139],[-106.37999549774763,40.010858785418499],[-106.3802039284531,40.011045504078048],[-106.38047177912138,40.011636936316307],[-106.38097750277855,40.01209489998115],[-106.38207864867067,40.01239260952952],[-106.38362604525659,40.012576860872009],[-106.38517317324623,40.012783622378215],[-106.38535205746371,40.013011231591349],[-106.38511406949044,40.013536615469405],[-106.38475683824804,40.013905765777146],[-106.3838938680771,40.014452133079097],[-106.38332868403293,40.014931868847697],[-106.38323941844315,40.015207718707209],[-106.38320973091965,40.016239656273747],[-106.38338839145661,40.016854665283823],[-106.38440043794726,40.018410222958067],[-106.38440043255737,40.019279628305448],[-106.38413287024832,40.020427023184141],[-106.38428164293745,40.020812649525062],[-106.38428177588813,40.021272130428613],[-106.3845498205925,40.021615785430612],[-106.38454971998118,40.02177345296581],[-106.38463894424847,40.021821938939311],[-106.38472822510961,40.022325403760902],[-106.38466916357463,40.023515347097963],[-106.38469903794771,40.025825899738599],[-106.38481816174091,40.026374056402311],[-106.38529470721934,40.027084603402287],[-106.38651512782164,40.028412415484439],[-106.38657474990536,40.029186516299454],[-106.38624761222499,40.03010488004108],[-106.38586080844341,40.030789709778041],[-106.38589087146271,40.031478567462351],[-106.38621824450171,40.03225396923547],[-106.38642674617408,40.033922713667209],[-106.38693303397328,40.034542809146721],[-106.39002928780577,40.036717526159713],[-106.39172629251405,40.037674682569055],[-106.39258949804361,40.037560712173715],[-106.39285726606686,40.037219644431566],[-106.39276789896746,40.036373836499358],[-106.39267836567971,40.036257792324854],[-106.3926187615623,40.035866595546132],[-106.39208256525407,40.034589201320877],[-106.3919039649042,40.034037265836481],[-106.39187402136085,40.033213270994999],[-106.39211175960246,40.033052750699781],[-106.39255866337146,40.033056396813443],[-106.39333229698575,40.033258820125589],[-106.39529721165111,40.034334333537842],[-106.39616103881484,40.035869036505133],[-106.39693560308373,40.037012905387442],[-106.3981564279279,40.038340585407951],[-106.3982159907228,40.038817365042433],[-106.39809699449036,40.039071055827563],[-106.39771014848802,40.039481148764565],[-106.39696616197307,40.040053200767268],[-106.39657910037502,40.040238050030226],[-106.39428730764239,40.040675567125135],[-106.39395955820929,40.040877711295941],[-106.39393009526459,40.041337546716399],[-106.39532229890203,40.042140647294474],[-106.39564676050119,40.042136741706621],[-106.39597032737832,40.042322044719789],[-106.39735234591707,40.042300881425163],[-106.39767940185078,40.042549203283137],[-106.39768142934837,40.042738377718436]]]},"properties":{"OBJECTID":107,"FEATURE":"Perennial Stream","NAME":"Blue River","ORDER_":5,"Shape_Length":125907.9817784827}}]
}