{
  "type" : "FeatureCollection",
  "features" : [{"type":"Feature","id":5529,"geometry":{"type":"Polygon","coordinates":[[[-106.04899084674335,39.569650804375819],[-106.04899014426081,39.57019998810933],[-106.04842806569259,39.570611704441312],[-106.04830939015871,39.570909108732053],[-106.0481640454407,39.573381586871335],[-106.04815885228003,39.573472116465119],[-106.04812867427638,39.574044260458635],[-106.04795062549211,39.574501745001776],[-106.0477435916669,39.57473040547471],[-106.04732903353631,39.57505026852229],[-106.04735787754177,39.57571427842808],[-106.0475055731509,39.575965897789935],[-106.04750455535969,39.576767053005348],[-106.0473565444419,39.577087393407226],[-106.04714866799695,39.577727961757425],[-106.0472961884346,39.578300097627725],[-106.04717596869673,39.579741965311655],[-106.04696861956286,39.580107728966333],[-106.04690843962535,39.581000248516396],[-106.04676025263777,39.58129763593319],[-106.04678941285022,39.581617982397695],[-106.04690724576434,39.582144543207434],[-106.04690573749298,39.583403160804174],[-106.04681674768599,39.583609020568979],[-106.04675705912695,39.584455764594857],[-106.04681572989477,39.584707568225738],[-106.04684471493573,39.585233942867248],[-106.04708059276641,39.585874815308088],[-106.04722828837552,39.586103816259033],[-106.04725762375944,39.586241276281143],[-106.04746448241319,39.586470113330705],[-106.04811407665302,39.58740887551869],[-106.04902955065737,39.588713937197085],[-106.04902955065737,39.588828271429286],[-106.04950197376698,39.589515080738046],[-106.04979715477944,39.590064431765938],[-106.04982582361343,39.590979916678357],[-106.04973616725648,39.591712160356458],[-106.04935090947554,39.592581681754631],[-106.04861029074459,39.593633794464495],[-106.04840276554093,39.593816855846192],[-106.04819555654421,39.594159830636812],[-106.04727755557897,39.595028699705487],[-106.04695202139136,39.595234551927689],[-106.04665596362318,39.59532591824054],[-106.04538411087762,39.595462386028188],[-106.0452137813166,39.595528253852564],[-106.04514721525572,39.595553914709484],[-106.04517655063965,39.595805542336009],[-106.0465360942283,39.596859147601442],[-106.04680165868417,39.597385700573589],[-106.04683113510359,39.597614690473925],[-106.04697833933423,39.598278187238982],[-106.04712470184349,39.59962852166754],[-106.04741854885776,39.601573971711005],[-106.04738787947564,39.60255800481341],[-106.047180003929,39.603175735453121],[-106.04700181500756,39.603587471839411],[-106.04605398727993,39.604685324133818],[-106.04608332266385,39.604937108225805],[-106.04676341021599,39.605303576335835],[-106.04729552188465,39.605784699651011],[-106.04776773389015,39.606608815130414],[-106.04823963058702,39.608096592725829],[-106.04832816315152,39.608142524176344],[-106.04856386581071,39.609126734540013],[-106.04856302408929,39.609973463581476],[-106.04817829182279,39.610247720443603],[-106.04782307190828,39.610338905009115],[-106.04726081727028,39.61027002350265],[-106.04681755527143,39.610086627048631],[-106.04625582704618,39.609582878781616],[-106.04601945783705,39.609239385182065],[-106.04572375041181,39.60914768565074],[-106.04551654141513,39.609216081747384],[-106.04536733753463,39.610314439282504],[-106.04510029894337,39.611092462732678],[-106.04474472778763,39.61161866457968],[-106.04459654080003,39.61175580338287],[-106.04421180943183,39.61184698596206],[-106.04382725323511,39.611823683405071],[-106.0431171278165,39.611663269115283],[-106.04231832879786,39.611662592985127],[-106.04172673877595,39.611593523866546],[-106.03950888278109,39.610722484007091],[-106.03847353938183,39.610469855878243],[-106.0376452648421,39.610309086884612],[-106.03693563080195,39.610033830233753],[-106.03510268134679,39.608911299616572],[-106.0341268513351,39.608430035387542],[-106.03347659054533,39.608017624637831],[-106.03202788197819,39.607261086522669],[-106.03096355353802,39.606665452928276],[-106.03060882410367,39.606482074610248],[-106.02969268265106,39.605771966283505],[-106.02966317209565,39.605680262159936],[-106.02924959582369,39.605336586553371],[-106.02570153162409,39.603800543798812],[-106.02419362497807,39.603227212757709],[-106.02324783193455,39.602699973990887],[-106.02203545754227,39.602126822792989],[-106.02046838874993,39.601599116062317],[-106.01709717947361,39.6007493374115],[-106.01632806708015,39.600794435534915],[-106.01606169593715,39.600908452203207],[-106.01591280736534,39.601457631209044],[-106.01538023935252,39.601594412225431],[-106.01464046324132,39.601754011654421],[-106.01458614301441,39.601782157085552],[-106.01336724146327,39.602416521919125],[-106.01286414986987,39.602530346270974],[-106.01218321969797,39.602850027018476],[-106.0119166724852,39.603055882989288],[-106.0109400007521,39.603352445546328],[-106.01052561779299,39.603443638500522],[-106.01038915112491,39.60367144629064],[-106.01034756900874,39.603740847919482],[-106.01170830556009,39.60392542395131],[-106.01241807973744,39.603948891123721],[-106.01265494032504,39.603788783195583],[-106.01277379192871,39.603468620214784],[-106.01292215408778,39.603239947285282],[-106.01475629650562,39.603264604463511],[-106.01519969953998,39.603425010527197],[-106.01528819707021,39.603562652818134],[-106.01564359305449,39.603471459328517],[-106.01594014309944,39.603036605690448],[-106.01629522287674,39.602876847257669],[-106.01682761481976,39.602900152825868],[-106.01839471864639,39.603542537492856],[-106.02093793365736,39.604162638866633],[-106.02229814469428,39.604621465237607],[-106.02345135694027,39.605125871118886],[-106.02407210627632,39.605492662829],[-106.02522496817934,39.606042860247356],[-106.02614124976915,39.606707033423703],[-106.02741194458631,39.607715215933474],[-106.02812140345499,39.608219302375524],[-106.03119655406483,39.609457657952944],[-106.03223123091412,39.61016759283666],[-106.0342417027408,39.611222033609614],[-106.03521753275248,39.611657565261609],[-106.03577926007942,39.611932653518352],[-106.03779025831885,39.612872259562359],[-106.03974174317072,39.613834830873223],[-106.04077638498572,39.614521986677751],[-106.04228481714621,39.61507251786476],[-106.04337932359005,39.615416685604998],[-106.04420728192279,39.615806101910159],[-106.04476887001088,39.616287044292456],[-106.04509391282002,39.616745033966822],[-106.04509342144156,39.617156933245163],[-106.04470833883211,39.617499738475196],[-106.04432329125692,39.617797131137841],[-106.0437610375172,39.617934095776768],[-106.04272534287669,39.618001996728154],[-106.04213361271756,39.617932743638931],[-106.04130512707376,39.617977858250285],[-106.04077220871797,39.618137933367677],[-106.0402688018159,39.618503737196178],[-106.03973521601186,39.619098350002346],[-106.03929128746307,39.619304022039067],[-106.03867001081595,39.619326159567343],[-106.03754567760971,39.619142598196419],[-106.03636267363565,39.618661135221188],[-106.03515012407188,39.618293845157488],[-106.03396726023499,39.617560773945215],[-106.03313863445398,39.617628837879884],[-106.03257638071427,39.617788751879736],[-106.03216199685687,39.61776545132286],[-106.03145204750804,39.617604699271936],[-106.03062405324268,39.617283654224067],[-106.02905733569163,39.616298289308176],[-106.02781580018859,39.615450367094155],[-106.02692881984672,39.614763219813376],[-106.02666293918386,39.614442702053402],[-106.02630824478385,39.614190735924737],[-106.02598285163172,39.614259127731287],[-106.02580480284746,39.614487791258789],[-106.02580396022773,39.615036971215382],[-106.02598116729058,39.615334536389796],[-106.0263358967249,39.615609637023631],[-106.02692748584852,39.615747254401214],[-106.02719319044158,39.616067955729584],[-106.0273113754953,39.616273988307874],[-106.02769544031356,39.616754927439253],[-106.02787247130662,39.617075461480617],[-106.0282860125443,39.617510469838201],[-106.0283745460071,39.617922363869589],[-106.02831468137826,39.618403156611514],[-106.02866905957133,39.618746469807824],[-106.02878692841806,39.619135732445159],[-106.02899361100201,39.619364893997009],[-106.0300876260674,39.620166709882419],[-106.03047169088566,39.620555964531952],[-106.03067823333241,39.620945216992169],[-106.03132849412219,39.62154067375846],[-106.03251118188928,39.622342464436493],[-106.03307276997734,39.622777818179458],[-106.03369401069187,39.623030130845024],[-106.03466966553206,39.623763036186247],[-106.03540912633459,39.623901015835514],[-106.0356456707152,39.624106863186576],[-106.03582287777806,39.624427390164477],[-106.03594088676198,39.62472529344636],[-106.03608858237109,39.624885379942178],[-106.0360588957459,39.624976896718394],[-106.03667964598027,39.625617941129576],[-106.03691569898243,39.626121869532923],[-106.03694436781642,39.626991256408836],[-106.03706202645738,39.627449391119228],[-106.03768281172604,39.628021873276012],[-106.03786033409754,39.628090629183774],[-106.03851126143725,39.628182655097291],[-106.03892518805218,39.628480542211896],[-106.03930921783613,39.628984125278187],[-106.03957509849899,39.629556432839273],[-106.03984115433333,39.629762641817088],[-106.04031455930154,39.629762803713803],[-106.04052190843541,39.629717211094459],[-106.040966013054,39.629420140175633],[-106.04120336502005,39.629168526077066],[-106.0413235847579,39.627429445328204],[-106.04147191188265,39.627040526854749],[-106.04221239047644,39.626537604935237],[-106.04280482311809,39.625942839479862],[-106.04292332348047,39.625782755430428],[-106.04345659217923,39.625256688933291],[-106.04407836020481,39.624982599474535],[-106.04434490741758,39.624914218955659],[-106.04564763975107,39.624640452649679],[-106.04709736610937,39.624664264294566],[-106.04748174713463,39.624801890653551],[-106.04757059590614,39.624984950598559],[-106.04771811634375,39.625236579911011],[-106.04780664890829,39.625465748245887],[-106.0484870877017,39.625718024818525],[-106.04955225786331,39.625901595733311],[-106.05233387766586,39.626017760240387],[-106.05393147480481,39.626293358786327],[-106.05490793723044,39.626293872176824],[-106.055529739392,39.626202519739365],[-106.05591443572591,39.626042760101541],[-106.05733619573283,39.624990815953787],[-106.06165958327772,39.621469072966633],[-106.06518350525404,39.618450081826388],[-106.06542019067015,39.618221430696032],[-106.06542120846137,39.617260190879222],[-106.06530302340767,39.616916871002722],[-106.06524386126135,39.616870944681452],[-106.06524400139854,39.616756603454391],[-106.06506683026831,39.616527622874251],[-106.06471210083397,39.61609258135158],[-106.06465293778936,39.615909524180466],[-106.06447555645336,39.615657726012714],[-106.06403183721203,39.615520270387179],[-106.06370644405992,39.615314073634906],[-106.0636475972223,39.615062462220742],[-106.06358843417767,39.614925005413163],[-106.06370728578135,39.614375797579513],[-106.06412233529039,39.613620924064683],[-106.06433003566556,39.612751396900016],[-106.06456710735722,39.612431220689068],[-106.06468560771962,39.612248154527492],[-106.06521820986843,39.612133805664342],[-106.06563259282753,39.611996694599704],[-106.06693546619648,39.610647195815083],[-106.06791248917084,39.60989249756647],[-106.06880062833942,39.609412375844215],[-106.07013234571384,39.608772019431903],[-106.07048739045683,39.608543336332716],[-106.07048756652662,39.60833765862165],[-106.06936354952737,39.608062394133007],[-106.06897916850214,39.607764662742966],[-106.06894965704842,39.607604563637473],[-106.06897965988061,39.607055378703073],[-106.06918718418595,39.606826554975463],[-106.06945341609007,39.606666480692631],[-106.07143606080422,39.60630134447652],[-106.07182061700092,39.606118451050321],[-106.07182079217239,39.605935232544006],[-106.07158424779179,39.605775129208439],[-106.07102216922355,39.605751824607857],[-106.07054876425535,39.605843204731293],[-106.07004567266195,39.605842690496978],[-106.0701645233673,39.605476738785022],[-106.07043089540861,39.605110785139047],[-106.07046058203382,39.604927726613369],[-106.07019470137097,39.604836021371732],[-106.06975080695817,39.604790087727835],[-106.06957324955236,39.604995964923972],[-106.0695135960276,39.605453596729667],[-106.06927670040571,39.605545139200046],[-106.06838922778707,39.605384385763401],[-106.06806400980645,39.605246909739577],[-106.06803467442252,39.604995288728702],[-106.06821219679404,39.604743504848265],[-106.06850843063201,39.604446272739906],[-106.0687451501841,39.604331776027543],[-106.06933705551471,39.604309471055657],[-106.0710524873644,39.604584750463786],[-106.07176261278302,39.604653638318375],[-106.07256141090336,39.60447109213662],[-106.07341972330954,39.604356919377551],[-106.07377462791536,39.604265402329077],[-106.07386330151539,39.604082341568635],[-106.07365640872565,39.603945024916953],[-106.0725322506909,39.603990473250434],[-106.07241389136401,39.603944701002725],[-106.07247322868179,39.603807249113622],[-106.07315366747521,39.603647465465713],[-106.07318335410041,39.603418657469348],[-106.07306516994498,39.603326950229253],[-106.07309485567187,39.603143886295854],[-106.0733610525417,39.603098303132981],[-106.07371592211324,39.603395865636053],[-106.07383428144011,39.603487383833688],[-106.07410065348144,39.6034647539812],[-106.0741008286529,39.60321280257692],[-106.0738346326814,39.603006920079409],[-106.07362777492597,39.60273233691759],[-106.07359826347226,39.602571901563941],[-106.07353906629167,39.602503336943698],[-106.07285897784121,39.602365882193695],[-106.07279964052343,39.602205445991082],[-106.07371676383467,39.602205797599133],[-106.07383512405985,39.60213723192426],[-106.07386481068505,39.601954328191916],[-106.07362826630442,39.601771098667847],[-106.07362858161309,39.601244714004345],[-106.07291880743577,39.601130049342736],[-106.07271194878201,39.600855458739296],[-106.07271194878201,39.600763937755687],[-106.0724164174266,39.600420264743974],[-106.07147009886863,39.600168329257698],[-106.07105620638968,39.599733130944649],[-106.07043510581235,39.599504148047998],[-106.07019873660323,39.599252344202668],[-106.07016922604781,39.598977746154546],[-106.07028772641021,39.5987487607605],[-106.07076116641272,39.598726129359633],[-106.07102736238421,39.59886359133364],[-106.07170713462772,39.599573202231745],[-106.07235774665874,39.599779392568706],[-106.07333354163612,39.600329094802788],[-106.07416202638164,39.600467040183304],[-106.0744574175999,39.600673065202287],[-106.07463458962843,39.600993430065408],[-106.07572892000248,39.601291326231419],[-106.07596564045289,39.601131401116653],[-106.07602515384046,39.600925377461067],[-106.07569993496153,39.600582056866749],[-106.07564091295242,39.600330256940339],[-106.0757594483491,39.600215915388503],[-106.07620316759044,39.600147375430055],[-106.07652856074255,39.600033032884163],[-106.07652873681232,39.599827167927941],[-106.07644037852099,39.599735645585476],[-106.0763812163747,39.599415274212085],[-106.07602631176887,39.599140352873171],[-106.07587865119405,39.598774068106742],[-106.07567161736883,39.598682544372693],[-106.07472494756959,39.59877374347618],[-106.07425171777287,39.598682030085193],[-106.07419269576376,39.598613136982515],[-106.07377862811333,39.59849862993385],[-106.07354194359553,39.598704498838963],[-106.07318668774842,39.598750085585969],[-106.07303885200213,39.598635443789092],[-106.07312801698059,39.598109386922047],[-106.07277314651076,39.597926147225593],[-106.07262562697143,39.597697158354883],[-106.07259594034623,39.597491313451073],[-106.07274398719663,39.597354011418261],[-106.07306934531444,39.597285440940041],[-106.07374995927935,39.597262809753182],[-106.07493299828771,39.597606633409107],[-106.07614586495677,39.597607147012397],[-106.07661891868371,39.59781334251015],[-106.07741754253085,39.598019376115261],[-106.0778609446669,39.598248363920703],[-106.07797912972063,39.598591858052949],[-106.07821567410123,39.598752112970381],[-106.07877743736077,39.599255859048398],[-106.07942804939182,39.599439094534873],[-106.08001946334397,39.599942672957752],[-106.08028565931548,39.600034547337827],[-106.08120264248953,39.599966142171915],[-106.08149834991474,39.599851826321263],[-106.08167604835603,39.599600186399371],[-106.08179440768295,39.599485869944687],[-106.08268205547307,39.59944041934714],[-106.08318497189498,39.599234580316292],[-106.08404293305989,39.59884582734756],[-106.08469389633223,39.598685896585785],[-106.08608460068146,39.598068477527043],[-106.0873271530774,39.597679907672429],[-106.0883628117853,39.597451241932262],[-106.08868834597291,39.597199620284016],[-106.08898408843243,39.596673227871477],[-106.0890732534109,39.596101243690384],[-106.08868869721418,39.595918025677385],[-106.08783105135792,39.595666073814343],[-106.08629331794951,39.595002038405099],[-106.08605677356888,39.594727288524304],[-106.08602726301349,39.594544229548518],[-106.08552469693454,39.594292272688641],[-106.08543602333452,39.594040638872912],[-106.08576141738494,39.594017843953345],[-106.08599792673127,39.59406362276183],[-106.08632349595317,39.593972254784063],[-106.08670787697839,39.594201228972196],[-106.08721061733053,39.594384478522684],[-106.08741765115575,39.594384478522684],[-106.08750649992723,39.594109888172603],[-106.08792056757768,39.594087066279144],[-106.08827564735498,39.59401868223614],[-106.0884826811802,39.593835621387775],[-106.08851268311405,39.593332025560834],[-106.08854219456776,39.593240683615143],[-106.08886772875536,39.593057620710837],[-106.08892675076449,39.59282877772862],[-106.08886772875536,39.592577003610401],[-106.08886807909833,39.592371143490944],[-106.08907528809502,39.592119340712088],[-106.08907528809502,39.591798988798487],[-106.0887203834892,39.591776031155781],[-106.08812879436557,39.592119178727316],[-106.08774423816885,39.59211901605034],[-106.08765552953454,39.592004498958268],[-106.08771490188663,39.591363791895382],[-106.08747835750601,39.591180561352296],[-106.08700526784646,39.591066069706841],[-106.08635465671374,39.590676811234545],[-106.08629566973892,39.590493768553436],[-106.08709429268775,39.59051672662104],[-106.08721282808446,39.590356641637634],[-106.08709446785925,39.590288064232737],[-106.08650287873562,39.590173408430829],[-106.08620713627612,39.589990337421447],[-106.08617815123515,39.589166403552312],[-106.08641469651405,39.588983518872865],[-106.08644452327644,39.588594411385166],[-106.08606014225121,39.588273880486391],[-106.0860308068673,39.587724704947945],[-106.08582394821356,39.587587247868662],[-106.08508466348081,39.587564288830286],[-106.08499595484651,39.587518343731574],[-106.0850256414717,39.587335292706058],[-106.08549904643992,39.587015107667668],[-106.0855287330651,39.586694569462949],[-106.08532183937707,39.58635142202364],[-106.08520383039316,39.585916407593409],[-106.08529267916464,39.585527471881775],[-106.08550006423113,39.585138398986139],[-106.0854410413237,39.584932543764566],[-106.08517484535219,39.58490955684632],[-106.08493812580009,39.585069654415129],[-106.08481944936791,39.585504349468401],[-106.084612416441,39.585618850996767],[-106.08437587116208,39.585481389739925],[-106.08440569792447,39.585206791794604],[-106.08419866499754,39.584932030067272],[-106.08384397059751,39.584748809515062],[-106.08369627498838,39.584542953828432],[-106.08363725297927,39.584131050231967],[-106.08348955737014,39.58399358602378],[-106.08277978229449,39.583833161268267],[-106.08233623912297,39.583810038981881],[-106.08215868171717,39.58390155536496],[-106.08198098417418,39.584382178646244],[-106.08192115457963,39.585480551353839],[-106.08165492357384,39.585549106517064],[-106.0815367385201,39.585549106517064],[-106.0813592161486,39.585388847363127],[-106.08133005593615,39.584908231756152],[-106.08150775437745,39.584359028850237],[-106.08153758113984,39.583809849284698],[-106.08159744576868,39.583237866900596],[-106.08177465193322,39.582963287066008],[-106.08195231534019,39.582803021931952],[-106.08239589354604,39.582825983240184],[-106.08251407770146,39.583123713835192],[-106.08280964498947,39.583169661847812],[-106.08289849376099,39.583055156272515],[-106.08298748266967,39.582643270833877],[-106.08319469166636,39.582460206929881],[-106.08384561990437,39.582369012658496],[-106.08423003506559,39.581956961133244],[-106.0844075583354,39.581865415180715],[-106.08485131171271,39.581842967966729],[-106.08541321510945,39.581660063957976],[-106.08591613153136,39.581294119483921],[-106.08615285108347,39.581179448799361],[-106.08677377648934,39.581225722813883],[-106.08766124910797,39.581248846654852],[-106.08807514068859,39.58115748877907],[-106.08854837048534,39.581043168891547],[-106.08916982230394,39.580333881911194],[-106.08982043433497,39.579967931126959],[-106.09082609110904,39.579762249562314],[-106.0918907698922,39.579487980678131],[-106.09200927025459,39.579419094797572],[-106.09192059665457,39.579236022377074],[-106.09162471405787,39.579213223279098],[-106.09138816967727,39.579281621935209],[-106.09088560449661,39.579281621935209],[-106.09082640641772,39.578984225867885],[-106.0909744532681,39.578801179301379],[-106.0909744532681,39.578526419179724],[-106.0907674194429,39.578480657800426],[-106.09047171291596,39.578686504492154],[-106.09026481922794,39.578778028333453],[-106.08999844808494,39.578778028333453],[-106.08996911180272,39.578617781216082],[-106.09011698348164,39.57834318238438],[-106.09011715865311,39.578045620272761],[-106.09002845001881,39.577954096156738],[-106.08976225404729,39.57793129594468],[-106.08937787302206,39.578068420447167],[-106.08739638623635,39.578456830271094],[-106.08724833938595,39.5784110681535],[-106.0871600170272,39.577907495229475],[-106.08739687761481,39.577518568575002],[-106.08733771546849,39.577312555702953],[-106.08689431243415,39.577060752898547],[-106.08627352716549,39.576534207471518],[-106.08577096198482,39.576396728194894],[-106.08567256861345,39.576429428145559],[-106.0851498614075,39.576602419054453],[-106.08470628320167,39.576602419054453],[-106.08393766218671,39.576510568297849],[-106.08307987619327,39.576555817910844],[-106.08234041539073,39.577127800744151],[-106.081482278156,39.577585292632669],[-106.08044711082654,39.577951066976247],[-106.07955946303642,39.578660026614273],[-106.07852411963717,39.5791173456821],[-106.07813956344046,39.579529225073692],[-106.07769566902765,39.579712107011304],[-106.07728142620574,39.579849254992894],[-106.07701523023422,39.580123658842815],[-106.07645311663173,39.580237816849824],[-106.0756838290668,39.580969904033246],[-106.07512125912014,39.581885049390451],[-106.07485502811431,39.581976406307149],[-106.07423427787995,39.581884697679257],[-106.07370167483283,39.581976054596474],[-106.07346499031503,39.582181918600547],[-106.07337561513077,39.583005692513908],[-106.07290154271432,39.584057950641686],[-106.0729595469322,39.585591510382635],[-106.07263383757314,39.586277838088051],[-106.07233746359795,39.587193129347057],[-106.07245480603194,39.588428778186469],[-106.07236493946924,39.589939201948923],[-106.07221706868863,39.590053696148814],[-106.07189171057082,39.589939039959056],[-106.07186237428859,39.589664458986924],[-106.07171467867947,39.589527168438956],[-106.07162600507945,39.589298151803419],[-106.07124211633099,39.588863128182126],[-106.07118274308061,39.588680080709345],[-106.07127229343634,39.587879117199449],[-106.07121327142723,39.58749003050881],[-106.0702085974101,39.586345391396279],[-106.06964669401336,39.586368026149785],[-106.06955784524186,39.586505485647756],[-106.06955749400058,39.586848632324113],[-106.06964602746342,39.587031684635342],[-106.06955700262213,39.587580866358877],[-106.06970469823125,39.587809861671495],[-106.06970434788828,39.58815302888727],[-106.06955633607218,39.588267363352777],[-106.06893523549486,39.588404494403683],[-106.06869869021592,39.5885873806115],[-106.06860935006598,39.589022053596914],[-106.06822461869776,39.589250720163548],[-106.06798775811019,39.589594042233657],[-106.06692107877889,39.5918589919441],[-106.06644714739792,39.592751333840383],[-106.06606143327281,39.594009786470153],[-106.06585355772617,39.595268269538998],[-106.06573519750096,39.595313858547627],[-106.06535029096128,39.595817277298906],[-106.06493604813937,39.59590864353536],[-106.06375286809551,39.595816439730108],[-106.06324995257188,39.595953555146771],[-106.06265787117148,39.596502585163279],[-106.06215442833683,39.597005833302035],[-106.06191774381901,39.597142947056511],[-106.06179938359382,39.597074214396201],[-106.0617995587653,39.596776651727097],[-106.06132629393429,39.596868016005914],[-106.06073456377516,39.597119314912618],[-106.06067505038759,39.59730236708328],[-106.06008360140115,39.597347819083893],[-106.05996510103876,39.597530870650665],[-106.05969887003295,39.597530870650665],[-106.05928480238251,39.597347467451179],[-106.0591964800238,39.596958379943601],[-106.05913763318615,39.596523351123395],[-106.05896060219311,39.596111464063732],[-106.05887210376459,39.59599698056747],[-106.05851702398728,39.595882307217764],[-106.05825131849591,39.59565350056284],[-106.05813348558176,39.594875303639036],[-106.05804481198176,39.594760655428907],[-106.05804495211896,39.594646493657855],[-106.05724734606302,39.593570412014273],[-106.05701129306087,39.593112431021638],[-106.05674593881078,39.592173989780584],[-106.05653974760529,39.59112123325756],[-106.05660077016255,39.589359185136125],[-106.05666010748034,39.589153315455114],[-106.05672144624455,39.586910668872612],[-106.05684015681271,39.586315725631259],[-106.05737409295971,39.58471376099773],[-106.05731591267202,39.583821424275378],[-106.05710954629507,39.582997660058652],[-106.05702185545196,39.581921749195331],[-106.05717074402379,39.580938045358046],[-106.05731924632005,39.580251394053207],[-106.05740809598984,39.580160034862594],[-106.05743778171673,39.579908241710292],[-106.05770432892952,39.579519326282515],[-106.0580893765047,39.579084809707112],[-106.05820773672991,39.578764451533779],[-106.05817857651746,39.578398329061329],[-106.0578241983244,39.578032043329614],[-106.05741027081115,39.577848642516791],[-106.05670133925355,39.57713886309584],[-106.05637647161589,39.576658081567373],[-106.05602205838854,39.576062644557545],[-106.05575621275997,39.57576523537108],[-106.05575635379547,39.57565058254292],[-106.05569736682065,39.575605143311726],[-106.05560883335784,39.575375809932211],[-106.055461172783,39.575124189120828],[-106.05498910091467,39.574094055359183],[-106.05487123206794,39.573636243377187],[-106.05487175848069,39.573132663461749],[-106.05507910761456,39.572721259848208],[-106.05519795921823,39.572103365659082],[-106.05522813722189,39.571462637309956],[-106.05508044161276,39.571233641991299],[-106.05490326958423,39.57109617920802],[-106.05434168239447,39.570912787050119],[-106.05389810418865,39.570912625015772],[-106.05327717878278,39.571049411636359],[-106.05253771798026,39.571049086875838],[-106.05233103539631,39.571026122358553],[-106.05176927213675,39.570751034354259],[-106.05132604517219,39.570361607753526],[-106.05111915148417,39.570315840291642],[-106.05079379336635,39.57047575483228],[-106.05040937730682,39.570567127479613],[-106.0502615415605,39.57052119742567],[-106.05005482394228,39.570177699845885],[-106.04967061808853,39.569994305258447],[-106.04937522687028,39.569742691920176],[-106.04903692043594,39.569661867920701],[-106.04899084674335,39.569650804375819]],[[-106.05637043583549,39.582997146347005],[-106.05651795627314,39.583088691496904],[-106.05654729165705,39.583363433532199],[-106.05622172333346,39.583569130717962],[-106.05598517805453,39.583568968713195],[-106.05589668052431,39.583454463797693],[-106.05589685569581,39.583180046826925],[-106.05601521592101,39.583065541268795],[-106.05637043583549,39.582997146347005]],[[-106.08017621217454,39.585594025536793],[-106.08038307082825,39.585777270161863],[-106.08085598441802,39.586624339380862],[-106.08094448284655,39.586716041736452],[-106.08100332878587,39.586899094397957],[-106.08112168901106,39.587104781088598],[-106.08094416663955,39.587196320812133],[-106.08064845921433,39.587104781088598],[-106.08058926203374,39.58694452622494],[-106.08032306606222,39.586967323471804],[-106.08014568382789,39.587104456403353],[-106.07999784718328,39.587012917250775],[-106.07990931461876,39.586852824171686],[-106.07973161617748,39.586898580715228],[-106.07949510683115,39.587127416286343],[-106.07919904906298,39.587195807131657],[-106.07893316840013,39.587104294406863],[-106.07890365784472,39.586852499485211],[-106.07881480817493,39.58680671591172],[-106.07881480817493,39.586692217038461],[-106.07851945199099,39.586417650198825],[-106.07854927875334,39.586028555301603],[-106.07881565079465,39.585845662339779],[-106.0792592290005,39.585754121524225],[-106.0797916559778,39.585777081162334],[-106.08017621217454,39.585594025536793]],[[-106.08375477058475,39.585755798289767],[-106.08372494382238,39.586007596504338],[-106.08351773482566,39.586190489038714],[-106.08319216560378,39.586579421028972],[-106.08265991379794,39.586579232031639],[-106.08268960042311,39.586350421649826],[-106.08339972584173,39.585801392865925],[-106.08375477058475,39.585755798289767]],[[-106.08177230104211,39.587196807493271],[-106.08212699544215,39.587883632973977],[-106.08209699260998,39.588135262154488],[-106.08194915686367,39.588135262154488],[-106.08174226317563,39.588066520556623],[-106.08156491687392,39.587860322353002],[-106.08141722126481,39.587494221625278],[-106.08150624520778,39.587196807493271],[-106.08177230104211,39.587196807493271]],[[-106.08529134606475,39.588182018198545],[-106.08543904167389,39.588388214752527],[-106.08555722582929,39.588662800782508],[-106.08561638887392,39.588754338447693],[-106.0856162128041,39.589166241560633],[-106.08546820188631,39.589234792385064],[-106.0853205062772,39.58925758887839],[-106.085202146052,39.58914325604691],[-106.08517249446109,39.588937250038541],[-106.08496577684286,39.588502386836765],[-106.08499563863953,39.588227800863308],[-106.08508413706807,39.588182018198545],[-106.08529134606475,39.588182018198545]],[[-106.08307282262165,39.588936411694263],[-106.0834865390308,39.589142606695468],[-106.08384126846512,39.589669137327881],[-106.08395927744907,39.590126789414022],[-106.08437302889253,39.590561642420404],[-106.08437285372104,39.59106523138832],[-106.08398847269581,39.591065068708865],[-106.08389962392431,39.590950576872551],[-106.0838406019152,39.590561642420404],[-106.08339719888085,39.590103668535498],[-106.08289463370019,39.5899888234404],[-106.0828354365196,39.589920435351885],[-106.08283578686257,39.589119621173907],[-106.08292481170386,39.588936411694263],[-106.08307282262165,39.588936411694263]],[[-106.06854899495697,39.590555449478842],[-106.06899257316282,39.590578408218278],[-106.06937695328972,39.590876132502466],[-106.06943597619714,39.591013609362648],[-106.06955433552405,39.591082159051517],[-106.06961332249885,39.591265227175889],[-106.06976101900629,39.59137988117093],[-106.0696721693365,39.591631361973384],[-106.06931729976496,39.591631172989828],[-106.06916942898437,39.591516844075279],[-106.06875518616245,39.591585257585606],[-106.06860735041616,39.59167679069742],[-106.06851815040339,39.591951363694314],[-106.06842930163188,39.592248757417217],[-106.06831076533689,39.592408865025973],[-106.06780770877778,39.592820584428921],[-106.06765934661871,39.593392730684172],[-106.06754081122203,39.593575603724645],[-106.06715643019679,39.59350689452144],[-106.06709740818769,39.593323643341719],[-106.06715674640377,39.593140580656687],[-106.06760099115955,39.592454455916361],[-106.06777886477232,39.591836547967354],[-106.06780869153469,39.591470414254189],[-106.06807541391898,39.590898441108386],[-106.06837164775698,39.590601041588975],[-106.06854899495697,39.590555449478842]],[[-106.08073495709473,39.590789302903829],[-106.08088261766956,39.590926590950829],[-106.08135588250059,39.591224151751909],[-106.08138521878281,39.591407219501058],[-106.0809118129163,39.591590286766532],[-106.08070492012656,39.591407219501058],[-106.08070492012656,39.591338481149521],[-106.08040921270135,39.591292728230229],[-106.08032053910134,39.591223989765034],[-106.08035036586372,39.590835056847787],[-106.08073495709473,39.590789302903829]],[[-106.08676823208739,39.591752559166544],[-106.0869752659126,39.591821270109669],[-106.08712296152174,39.591935598521886],[-106.08709327489653,39.592279096961498],[-106.08691592769654,39.592324876918944],[-106.08650186094441,39.592232993004721],[-106.0864130121729,39.592164282469938],[-106.08641336251587,39.591843903074341],[-106.08676823208739,39.591752559166544]],[[-106.08508045217877,39.595344710369531],[-106.08543535678459,39.595367829498983],[-106.08584942443501,39.595528253852564],[-106.08581973780983,39.595757087917292],[-106.0854942036222,39.595917187417577],[-106.0847250561945,39.596008390854365],[-106.08445886022297,39.595962451355348],[-106.08422266618533,39.59573361796906],[-106.08431098944237,39.595618944183421],[-106.08481408103577,39.595527767229989],[-106.08508045217877,39.595344710369531]],[[-106.06650248541605,39.597671525979436],[-106.06667965654628,39.597785844736521],[-106.06676833014627,39.598014833314032],[-106.06676734738936,39.599090413307728],[-106.0669150438968,39.599296253459151],[-106.0672109264935,39.599433903263972],[-106.06735858706834,39.599548381771832],[-106.06732893547743,39.599822977557544],[-106.06721040008074,39.599914689437725],[-106.06629341600841,39.599936968138543],[-106.06593819609391,39.600142832768405],[-106.06573084606173,39.600440056353371],[-106.06573049571877,39.600829151988826],[-106.06593735347418,39.601126859211647],[-106.06614421212791,39.601309927784818],[-106.06644026989611,39.601378818204942],[-106.06673615249281,39.601264505378197],[-106.06685451271801,39.601172984242965],[-106.06712105903247,39.600738279521039],[-106.0674465932201,39.600486507156802],[-106.06768366491178,39.600029004492505],[-106.06797954750849,39.599823491144441],[-106.0683345922515,39.599846446120139],[-106.0685711366321,39.600144022595572],[-106.06857096146064,39.600372841411165],[-106.06848193661935,39.600487155709736],[-106.06830441424783,39.600578704745431],[-106.06789017142593,39.600738793101101],[-106.06783065803835,39.601264829997078],[-106.06759379745074,39.601447898205535],[-106.06735707789866,39.601562400378207],[-106.06720889091108,39.601745467800022],[-106.06709021537721,39.6022257506594],[-106.06703052591983,39.603026872908863],[-106.06676415477683,39.603095275051665],[-106.06652743432645,39.602957821476565],[-106.06640925017102,39.602728984208255],[-106.06635075367635,39.602134041839577],[-106.06626208097465,39.601905039887271],[-106.06596654872092,39.601653244770908],[-106.06522708791837,39.601378331623479],[-106.06484302310011,39.601057643920981],[-106.06472466287491,39.600805845723684],[-106.06454815829463,39.599958949893761],[-106.0641637422351,39.59959264246195],[-106.06383838411729,39.599432226829457],[-106.06380918887055,39.599043124038161],[-106.06484519881974,39.598334345939691],[-106.06620660281935,39.597671525979436],[-106.06650248541605,39.597671525979436]],[[-106.05981621246694,39.59842319347549],[-106.06005293201903,39.598537862618628],[-106.06002310525665,39.598858238050582],[-106.05984523164388,39.599109853673433],[-106.05957886050088,39.599246990257534],[-106.05919430430416,39.599338351277822],[-106.05895758385375,39.599269621488205],[-106.05886908632354,39.59913213332527],[-106.05889908825739,39.598651531375772],[-106.0592541338987,39.598468644740556],[-106.05981621246694,39.59842319347549]],[[-106.0743400401316,39.599276975805985],[-106.07457640934074,39.599528779561759],[-106.07487197662878,39.599895059644794],[-106.07469445425728,39.599986609463151],[-106.07454658257836,39.600009402418472],[-106.07416234258861,39.599734645404915],[-106.07407366898862,39.599574365074112],[-106.0741033556138,39.599322588478707],[-106.0743400401316,39.599276975805985]]]},"properties":{"FID":5529,"NAME":"Dillon Reservoir","FTYPE":"Lake/Pond"}},{"type":"Feature","id":5983,"geometry":{"type":"Polygon","coordinates":[[[-106.22384623245607,39.831509508759076],[-106.2225363055155,39.831782778386085],[-106.22230362119565,39.831831390827404],[-106.22236313458323,39.83201444065319],[-106.22263034834597,39.832105629086868],[-106.2237875607899,39.831967176288536],[-106.2249157531586,39.832172187433514],[-106.22542067012866,39.832423654251976],[-106.22604461297556,39.832903438558425],[-106.22628266652585,39.833223616429898],[-106.22637200667579,39.833452444865408],[-106.22646120668857,39.833589574347556],[-106.22652089524762,39.833749822944149],[-106.2267889516301,39.834344603521558],[-106.22717568354642,39.834916420686504],[-106.22756343235567,39.836128778460498],[-106.22786166584346,39.837112488356055],[-106.22798065758433,39.837203858333517],[-106.22827822452217,39.83782143110129],[-106.22899221000156,39.838896483788041],[-106.22925991514276,39.839193542385402],[-106.22997407579365,39.840130973235681],[-106.23068700844753,39.840725428859216],[-106.23163736223773,39.84102196775126],[-106.23344852036075,39.841272081993836],[-106.23371608536476,39.84147760474513],[-106.23368941618061,39.843399916811322],[-106.23360074258059,39.843697467701183],[-106.23357158236814,39.843994855907319],[-106.23363123679123,39.844086405020796],[-106.23375043873784,39.844475313238348],[-106.23383542744857,39.844993648108662],[-106.23384048047204,39.845024173245555],[-106.23381163646657,39.845596467046541],[-106.23345673186077,39.846352011152881],[-106.23339806019462,39.846901044442973],[-106.23360695353246,39.847541590951089],[-106.23366713436829,39.847816170632264],[-106.23372647168607,39.847999070264137],[-106.23375664968971,39.848342400513481],[-106.23387585163636,39.848639767910797],[-106.23390616977719,39.84905165767421],[-106.23405537455599,39.849532107204745],[-106.23414538125587,39.850012579579804],[-106.23426458410081,39.850332758375266],[-106.23429476210447,39.850630144737039],[-106.23453281565476,39.851087630364439],[-106.23491923136412,39.851384852079022],[-106.23697026751577,39.852915900376679],[-106.23735668322514,39.853075646651682],[-106.23869426120845,39.853944006088817],[-106.23958590919653,39.85456075454465],[-106.2406257792065,39.85497163919063],[-106.24303140375697,39.855449730217117],[-106.24555686356636,39.856385322710132],[-106.24745887011069,39.857367341170509],[-106.24861843434405,39.858327069548736],[-106.24921269056574,39.858555248192125],[-106.25057862117609,39.858668220123199],[-106.25111925965341,39.85885865955828],[-106.25140338689631,39.859166433850561],[-106.25141563362858,39.859179174283163],[-106.25233598548493,39.859180359648064],[-106.25340431412309,39.859502057540197],[-106.25390842350771,39.859891310090525],[-106.25408643725767,39.859983188300674],[-106.25494745089793,39.860121477042327],[-106.25539236310198,39.860259118702068],[-106.2556594007949,39.860465311403317],[-106.25589594607382,39.860969060881146],[-106.25595493304866,39.86122069185781],[-106.25607329327384,39.861403906061312],[-106.25666688294559,39.861656047083315],[-106.2568147537262,39.861930624088529],[-106.25681373593501,39.862479963734899],[-106.25696178278538,39.862892039363189],[-106.25716913191928,39.863098386191723],[-106.25716829019785,39.863601819844959],[-106.25731651221973,39.863807679806385],[-106.25767239958248,39.86401421211972],[-106.25785009712546,39.86426599396551],[-106.25796859748785,39.864586509635309],[-106.2580569557792,39.864838316271815],[-106.25856138047247,39.865113230812192],[-106.25927368161071,39.865388655863072],[-106.26081744990121,39.865710540463667],[-106.26268794624031,39.865734995677499],[-106.2636967965252,39.866056528388491],[-106.26461630666012,39.866858172718558],[-106.26467546880642,39.8670184519206],[-106.26500103802832,39.8674992328109],[-106.26500019540859,39.868117152214992],[-106.26473178868316,39.868803286368568],[-106.26458258480267,39.869329678012839],[-106.26455661720276,39.869468136140881],[-106.26455275714198,39.869489601193521],[-106.26476014220846,39.869695793734941],[-106.26529439366415,39.869902308323312],[-106.26576948387181,39.869902658568336],[-106.26663095385625,39.869720436440403],[-106.26769998407863,39.869721432710932],[-106.26778918409141,39.869675836598162],[-106.26775984870748,39.869446859994468],[-106.2675819750947,39.869332344172179],[-106.26758250150746,39.869057581673729],[-106.26802772902016,39.869058254593767],[-106.26847281549735,39.869195716991435],[-106.26885905603523,39.869173094233233],[-106.2704033166025,39.869083247777468],[-106.27114561967458,39.869060947652862],[-106.27227398811307,39.869130514172156],[-106.27263022581879,39.869313923056978],[-106.27316416196578,39.869680361530925],[-106.27423284184522,39.869955956468836],[-106.27524204247305,39.870414283333858],[-106.27657776004544,39.870690225564275],[-106.27705302542458,39.870782090003651],[-106.27729023635514,39.870873953630593],[-106.27916108303721,39.870875300124489],[-106.27951732164122,39.871012920211797],[-106.27963533062517,39.871562267804379],[-106.27948630191615,39.871973993114473],[-106.27903988144075,39.872705897233821],[-106.27868315145828,39.872980161140767],[-106.27776115029506,39.874054879034894],[-106.27707734281933,39.874557801407015],[-106.27612667282214,39.874991644929253],[-106.27588826803057,39.875334785685624],[-106.27526400897671,39.875723221095591],[-106.27526334242675,39.876269891960469],[-106.27526316725528,39.876317987570182],[-106.27556003260889,39.876524186471904],[-106.27588661872372,39.876433003259898],[-106.27657056633663,39.875953038495545],[-106.27752141240362,39.87558776483894],[-106.27772977932872,39.875198844009716],[-106.27802699592363,39.874993314674519],[-106.27882965410473,39.874353266354134],[-106.27951346158045,39.873872991274666],[-106.28013722925587,39.873690618369316],[-106.28040496943134,39.873416357303149],[-106.2804646229561,39.873279064688703],[-106.28061351152793,39.873095990436084],[-106.28126693079423,39.872890643013477],[-106.28162369581101,39.872502057121956],[-106.28209927649884,39.872319330338733],[-106.28263370402428,39.872365436254462],[-106.28319764210515,39.872571781478619],[-106.28349419125179,39.872846718804745],[-106.28373140308068,39.873190032307235],[-106.28387892261999,39.874105507735436],[-106.2840564458898,39.874403060644042],[-106.2849467598797,39.874998673439649],[-106.28607446176825,39.875640223457339],[-106.28622264875584,39.875869233849365],[-106.28622215737737,39.876281121511049],[-106.28604361721464,39.876578341656341],[-106.28604330100767,39.876784377768708],[-106.28690428051196,39.87715099211227],[-106.28711180571563,39.877334217546498],[-106.28725999270321,39.877563221592638],[-106.28868526063131,39.877793033516163],[-106.28907100979073,39.877953475368933],[-106.28927871016589,39.878090946826177],[-106.28951574592496,39.878548922903811],[-106.28960424435351,39.87902954301255],[-106.28960326159657,39.879899082328649],[-106.28927600803351,39.880310622480387],[-106.28862206325276,39.880813552748265],[-106.28844352309004,39.881087972425291],[-106.28808679310757,39.881339422072145],[-106.28704692309761,39.881681912040094],[-106.28639315348833,39.882024722907147],[-106.28634286849366,39.882370737460889],[-106.28633314872231,39.882436439178839],[-106.28660018641524,39.882619677375132],[-106.28695674032792,39.882620000671317],[-106.28793727302011,39.882414816873961],[-106.28853103786334,39.882460916003055],[-106.28912480360489,39.88262134693467],[-106.29019418506856,39.882599401391765],[-106.29055042277426,39.882691249880324],[-106.29084746329937,39.88278312444033],[-106.29108467512825,39.88298914191089],[-106.29105467229608,39.883263741066749],[-106.29090595889573,39.883469595791723],[-106.28947886648928,39.884726897979675],[-106.28888425902632,39.885115629669443],[-106.28846819082773,39.885275408511404],[-106.28831947832572,39.885481418493377],[-106.28834512882035,39.886049552086817],[-106.28834849750267,39.886122143237245],[-106.28950669270354,39.886283077747692],[-106.29045669615077,39.88664969507365],[-106.29158523976075,39.886810789639306],[-106.29289246456892,39.886651552711342],[-106.29416954550945,39.886583646543883],[-106.2951802202727,39.886241154177661],[-106.29645779348998,39.885647227862556],[-106.29687372065305,39.885670195351572],[-106.29717044497119,39.885807813324014],[-106.29746699411783,39.88633420887664],[-106.29761500593392,39.886746087447051],[-106.29841615584367,39.887478830621198],[-106.29853483137752,39.887684861553367],[-106.29862368104733,39.888051148112545],[-106.29844531605609,39.888302599105124],[-106.29808827076495,39.888714330752876],[-106.29793924115762,39.889126060616967],[-106.29793804819494,39.890293144023467],[-106.29799721123955,39.890659255361705],[-106.29814557339861,39.89065944421624],[-106.29859083594557,39.890819855963706],[-106.29912543864252,39.890911719631085],[-106.30084806330272,39.891004444733703],[-106.30393696981452,39.891440795743932],[-106.30649095742237,39.892197692595147],[-106.30726242070691,39.893044584430527],[-106.30744043445688,39.893342135798925],[-106.30776702146999,39.893502406870084],[-106.30809388875747,39.893434022965678],[-106.30845061784163,39.893251298197256],[-106.30842114232054,39.893045257804452],[-106.30800556639873,39.892518698053692],[-106.30791685776444,39.892289877666634],[-106.30794703486977,39.891694926473413],[-106.3083041151952,39.890985813705193],[-106.30839363141497,39.890802759152564],[-106.30842380941861,39.89025375453636],[-106.30827527118976,39.890116280582681],[-106.30824593580583,39.889750166344463],[-106.30815694599886,39.889658462407333],[-106.30815726220584,39.889177836156072],[-106.30827664022225,39.888720200573104],[-106.30839563106477,39.888537463238599],[-106.30881190946913,39.888308818422409],[-106.30919829014418,39.888011595357121],[-106.30922846814784,39.887370888271562],[-106.30899094101029,39.886981792329024],[-106.30896160562639,39.886661434377928],[-106.31074525194551,39.884969125136763],[-106.31131003264612,39.884351545730823],[-106.31169662442527,39.884008557624156],[-106.31258795620634,39.883597012782886],[-106.31297433777972,39.883322764448963],[-106.31339058025146,39.882842471531461],[-106.31395518578059,39.882339232157825],[-106.31457965504023,39.881858770356381],[-106.31535196004617,39.881584838370991],[-106.31630280611316,39.880990225112377],[-106.31701577380134,39.880647409073404],[-106.31829317094883,39.880350691179039],[-106.31906596823157,39.879733124633447],[-106.31980862164663,39.87939014030944],[-106.32040273773113,39.879253344276592],[-106.32067009252935,39.879139006827323],[-106.32105633306723,39.878887225797953],[-106.32168013577696,39.878818989315775],[-106.3224526168527,39.878567530426743],[-106.3245019686632,39.87815665333423],[-106.32586821458217,39.878019854840822],[-106.32818464001824,39.878203751473407],[-106.32931318362819,39.878204262989883],[-106.32952105917482,39.878066953073947],[-106.3305914233954,39.876053809100249],[-106.33076978748835,39.875870903573258],[-106.33130439108359,39.875779531286611],[-106.33124522803899,39.875527737923079],[-106.33097801427625,39.875367478602669],[-106.33056243835445,39.875298591956856],[-106.32931504314082,39.875298242428734],[-106.32929441063538,39.875299104184414],[-106.32878061561536,39.875320890053636],[-106.32800831060941,39.875526230200371],[-106.32750321846785,39.875571849310987],[-106.3273253448551,39.875480314616269],[-106.32637481499509,39.875548877750035],[-106.3260184371522,39.875502773974205],[-106.32515745764792,39.875136474151347],[-106.32489024388518,39.875067749284149],[-106.32429612780066,39.875387595403957],[-106.32367232509097,39.875547693357333],[-106.32278134365282,39.875524398458587],[-106.3215044378838,39.875295064273708],[-106.32079164536709,39.875363304951634],[-106.32058394499194,39.875294740942984],[-106.32028722067382,39.874996842373143],[-106.32019819583253,39.874905307600422],[-106.31948540421413,39.874859552922331],[-106.31853522469709,39.874675809333922],[-106.31791163309148,39.87465267615066],[-106.31746605433752,39.874789804693719],[-106.3171688027083,39.874995495960157],[-106.31699078895835,39.875109840317677],[-106.31580241665213,39.875383905715552],[-106.31538648948907,39.875681129749083],[-106.31497059736029,39.875795473652943],[-106.31473303518847,39.875726748756669],[-106.31461435965461,39.875543519027893],[-106.31455533764547,39.875200351739622],[-106.31446666404547,39.874994337755417],[-106.31428847422572,39.874788296265372],[-106.31402126046299,39.874719409037823],[-106.31399560996836,39.874734328565886],[-106.31354582081066,39.87499382621494],[-106.3128326770527,39.875336644319233],[-106.31223873613965,39.875473609485162],[-106.31066461467402,39.875472935938646],[-106.31033788752373,39.875586929973551],[-106.30950624430167,39.875586579757496],[-106.30917969232286,39.875654981465196],[-106.3087046030135,39.875403187644402],[-106.30784327316624,39.875448456620099],[-106.30745720779984,39.875562612015734],[-106.30653653973653,39.875493564245751],[-106.30626967721507,39.875241258293777],[-106.30561622291445,39.875172533531568],[-106.30567587643922,39.874989624964904],[-106.30564654105528,39.87457756822463],[-106.30549249435711,39.874569704793316],[-106.30428064547928,39.874508169241402],[-106.30240962362573,39.874369882609351],[-106.30214258503447,39.874255213682567],[-106.30196488749149,39.873866123972967],[-106.30148962211233,39.873797047607653],[-106.30104453473683,39.873430765562517],[-106.29982682614838,39.873544412075759],[-106.29860996017968,39.873017379203361],[-106.29712584541394,39.872284131252059],[-106.29579009280727,39.871802656537277],[-106.29504814007814,39.871413418473473],[-106.29484026453152,39.871184420091978],[-106.29475190624015,39.870566340095777],[-106.29445521695632,39.870291581850502],[-106.29442588157239,39.8700399572515],[-106.29451522172238,39.869788331729509],[-106.29436703473478,39.869673655143352],[-106.29392145598082,39.869673493809458],[-106.29353553164992,39.869581628574878],[-106.29294243335661,39.869123646395643],[-106.2926750435241,39.868940425916414],[-106.29127963739268,39.868733558181333],[-106.29062667447052,39.868481416278385],[-106.28967733757322,39.867817067847653],[-106.28905388610478,39.867610546981815],[-106.28875702075118,39.867404510201489],[-106.28759949210023,39.867128904323863],[-106.28700604256565,39.866648120148859],[-106.2867391450099,39.866304478111282],[-106.28653211118468,39.865824011534137],[-106.28650396876347,39.864702703375364],[-106.28623724637922,39.864130541284716],[-106.28620840237373,39.8635811879616],[-106.28650565310463,39.863169628100728],[-106.28656548269917,39.862895056053517],[-106.28558596779823,39.862574020159705],[-106.28487419307274,39.861841280475964],[-106.28445893335791,39.861680665784498],[-106.28431043016334,39.861497614362634],[-106.28431057030055,39.86142887514125],[-106.28422172152905,39.861337187112504],[-106.28410322116666,39.861039793356433],[-106.28392619017362,39.860215860101775],[-106.28383716533233,39.860192722042129],[-106.28383751657361,39.860101194407591],[-106.28365915158237,39.860032453787355],[-106.28356493358042,39.860045706400626],[-106.28333242443207,39.860078056309291],[-106.28273813317607,39.860466631208915],[-106.28155007617853,39.86085471984434],[-106.2798572773824,39.861105004554666],[-106.27941169952676,39.86124197124493],[-106.2787280672225,39.861767505195012],[-106.27851987546889,39.862042108646179],[-106.27730181653749,39.86252155154861],[-106.27655884691542,39.862886841002123],[-106.27596437958964,39.863504424779364],[-106.27584521267731,39.863710446380914],[-106.27539928268207,39.864076053578131],[-106.27468649106369,39.864189877626082],[-106.27430042569729,39.864143793106571],[-106.27338056521941,39.863776651398013],[-106.27234223851512,39.863341309627174],[-106.27121453752487,39.862699590795152],[-106.27100701232119,39.862493377226322],[-106.27076994152783,39.862150064663588],[-106.27071126986168,39.861646647250865],[-106.27091967271936,39.861257728054483],[-106.27154428211621,39.8605717611605],[-106.27199070259159,39.859862811284749],[-106.27216924275432,39.859702704306386],[-106.27240694596165,39.85945125601414],[-106.27240726127032,39.859176669087901],[-106.2720807101898,39.859153369319223],[-106.27169446965192,39.859336266325919],[-106.27083215704778,39.860182162864824],[-106.27014852474352,39.860730493215264],[-106.26970277081807,39.860913061930525],[-106.26925750827108,39.860913061930525],[-106.26854573354561,39.860340249018314],[-106.26706330312102,39.858943159384935],[-106.26638170639919,39.858232872145734],[-106.26617414616122,39.857935464936098],[-106.2661449859488,39.85754622887508],[-106.26626517065233,39.856562515886459],[-106.26641437543113,39.856105039165072],[-106.26691981791564,39.855624932168823],[-106.26736606321954,39.855122006160073],[-106.26739655743017,39.854595801355273],[-106.26727823223926,39.854366800629172],[-106.26706916283162,39.854408527834593],[-106.26659526648496,39.854503430444474],[-106.265139680416,39.854959732403735],[-106.26490162686571,39.855211197152933],[-106.26487144886205,39.855646051234629],[-106.26481109375307,39.856149297513902],[-106.26463272876182,39.856400919269795],[-106.26424666339543,39.856400595849962],[-106.26386073906454,39.85626294645111],[-106.26267454157963,39.855460801808675],[-106.2622001188202,39.855277409680625],[-106.26187307636123,39.855322827100089],[-106.26163551329108,39.855436988402545],[-106.26151581996601,39.856031958348836],[-106.26115926605333,39.856191696681911],[-106.26074351496007,39.856191211895542],[-106.26044678974361,39.856099517558214],[-106.26026895116513,39.855916288503103],[-106.26021028039729,39.855481247182183],[-106.26000254498784,39.855435156813897],[-106.25931943909634,39.855571946559124],[-106.25813204864873,39.855616527985632],[-106.25706203656772,39.856096150253578],[-106.25590398150405,39.856323797740657],[-106.25516185360343,39.856254245819805],[-106.25468725567252,39.855910577930807],[-106.25433101706851,39.855818882528972],[-106.2542128329131,39.855567097272164],[-106.25367907193758,39.855200286888994],[-106.25341238458761,39.854811035315279],[-106.25311566026947,39.854787734064423],[-106.25302614404973,39.854970804074341],[-106.25293662872829,39.855245218876831],[-106.25290645072462,39.855565589110704],[-106.25243069486532,39.855931185226154],[-106.25228215663647,39.856159857311745],[-106.25216295468985,39.856251390203006],[-106.25186626450771,39.856251039888235],[-106.25168804055197,39.856204950036904],[-106.2517480803523,39.855907722989315],[-106.25186724726463,39.855564565050493],[-106.25174874690222,39.855472869875932],[-106.25118498399286,39.855289154355113],[-106.25057209401723,39.855029798015352],[-106.25030386336159,39.854526731791843],[-106.25027368535794,39.854229335416584],[-106.25009496912541,39.853863218537782],[-106.24982726488254,39.853680495901465],[-106.24955987505002,39.853612261239356],[-106.24887691019401,39.853544187881297],[-106.24771906623444,39.853545534715309],[-106.24483835147625,39.853044963721715],[-106.24424423539173,39.85288570218502],[-106.24353095149658,39.852497460901105],[-106.24305519563728,39.852086077317985],[-106.24266793730818,39.851377147366243],[-106.24237089678307,39.85121704748753],[-106.24153907749124,39.850874728848929],[-106.24076708779394,39.850715300898351],[-106.24061872563487,39.850852611080796],[-106.24067859026374,39.851127204415178],[-106.24145138664815,39.851652897201177],[-106.2421053673615,39.852155660358562],[-106.24219488358125,39.852407269859818],[-106.24207634728626,39.852544738721583],[-106.24100766830513,39.852591504802035],[-106.24032452737933,39.852477849785409],[-106.2394335459412,39.8521813065787],[-106.23812579561854,39.851404464196641],[-106.23708627684988,39.851131056785647],[-106.23669986024221,39.850856625534547],[-106.23661034492078,39.850605010349312],[-106.23580768584137,39.84989638855194],[-106.23568865906623,39.849690702722732],[-106.23562833899152,39.849164321105029],[-106.23574533018424,39.848134689273067],[-106.23565546362153,39.847585665848598],[-106.23529740053918,39.846464679014112],[-106.23520753397646,39.846052801317406],[-106.2351480556232,39.845915669822404],[-106.23505717126926,39.844840106974502],[-106.23499765788169,39.844748720258487],[-106.23475928902273,39.844131155990624],[-106.23469742474406,39.84271242438593],[-106.23442821043319,39.841362449065052],[-106.23430935972785,39.841316834797937],[-106.23430900848658,39.841065211548617],[-106.23413064349532,39.840882320345365],[-106.23335798724808,39.840333804526161],[-106.23294209511933,39.840151099678756],[-106.23282324441396,39.8399453846529],[-106.23277731085854,39.83994037354794],[-106.23261519279752,39.839922428754058],[-106.23231797710095,39.839739884906194],[-106.23148580656783,39.83898550755557],[-106.23124792908733,39.838802610123636],[-106.23050548497974,39.838551813667337],[-106.22979234212008,39.837957554439129],[-106.22893017055141,39.837088669274721],[-106.22869197596565,39.836539665130566],[-106.22857126484934,39.8353727452279],[-106.22848206483656,39.835166719271058],[-106.22839272468661,39.835006769908453],[-106.22821418452391,39.834595065606315],[-106.22797648221487,39.834503692158187],[-106.22756006367335,39.834023595504355],[-106.22651903573498,39.832559924185439],[-106.22601394359343,39.832148554964654],[-106.22515278981599,39.83171454886368],[-106.22455867283317,39.831554941902709],[-106.22384623245607,39.831509508759076]],[[-106.29791541514135,39.883542863141038],[-106.29877656981711,39.883749228503163],[-106.29960807290198,39.884047439226748],[-106.29993427363952,39.884299255075632],[-106.29990444687715,39.884505267990654],[-106.29972608188588,39.884665209553717],[-106.29945886812317,39.884710795701814],[-106.29833014934172,39.884572826046586],[-106.29729080574451,39.884320365315411],[-106.29699408052807,39.88416009965897],[-106.29702408246193,39.883839755406257],[-106.2974104990696,39.883633902481904],[-106.29791541514135,39.883542863141038]],[[-106.30435875668819,39.885560391797775],[-106.30453694650794,39.885629295018269],[-106.30471499529219,39.885743622334729],[-106.30471482012071,39.885949630909771],[-106.30441742835433,39.886155342468776],[-106.30397202567015,39.886200927626135],[-106.3040615409916,39.885766078331336],[-106.30415070597005,39.885674719229144],[-106.30435875668819,39.885560391797775]]]},"properties":{"FID":5983,"NAME":"Green Mountain Reservoir","FTYPE":"Lake/Pond"}}]
}